{"type":"FeatureCollection","name":"buildings","features":[
{"type":"Feature","properties":{"osm_ref":2001552,"archetype":"INDUSTRIAL","use":"INDUSTRIAL","levels":1,"flags":1,"height_cm":0,"min_height_cm":0,"roof_shape":"GABLED","roof_material":"METAL","wall_material":"METAL","seed":3096572074,"tile":"10/517/162"},"geometry":{"type":"Polygon","coordinates":[[[85.3166472,27.7127127],[85.3172556,27.7127177],[85.3172528,27.7129885],[85.3166443,27.7129834],[85.3166472,27.7127127]]]}},
{"type":"Feature","properties":{"osm_ref":2001554,"archetype":"GREENHOUSE","use":"GREENHOUSE","levels":1,"flags":1,"height_cm":0,"min_height_cm":0,"roof_shape":"ROUND","roof_material":"GLASS","wall_material":"UNKNOWN","seed":3482763324,"tile":"10/517/162"},"geometry":{"type":"Polygon","coordinates":[[[85.3174639,27.7133476],[85.3178696,27.7133509],[85.3178688,27.7134231],[85.3174632,27.7134198],[85.3174639,27.7133476]]]}},
{"type":"Feature","properties":{"osm_ref":2001556,"archetype":"HUT","use":"HUT","levels":1,"flags":1,"height_cm":0,"min_height_cm":0,"roof_shape":"SKILLION","roof_material":"METAL","wall_material":"UNKNOWN","seed":1596579245,"tile":"10/517/162"},"geometry":{"type":"Polygon","coordinates":[[[85.3183496,27.7132705],[85.3184003,27.71327],[85.3184007,27.7133061],[85.31835,27.7133066],[85.3183496,27.7132705]]]}},
{"type":"Feature","properties":{"osm_ref":2001558,"archetype":"HILL_VILLAGE","use":"HOUSE","levels":2,"flags":1,"height_cm":0,"min_height_cm":0,"roof_shape":"HIPPED","roof_material":"SLATE","wall_material":"MUD","seed":674164027,"tile":"10/517/162"},"geometry":{"type":"Polygon","coordinates":[[[85.3215814,27.7180146],[85.3216726,27.7180137],[85.3216733,27.7180679],[85.321582,27.7180688],[85.3215814,27.7180146]]]}},
{"type":"Feature","properties":{"osm_ref":2001560,"archetype":"HILL_VILLAGE","use":"HOUSE","levels":1,"flags":1,"height_cm":0,"min_height_cm":0,"roof_shape":"HIPPED","roof_material":"SLATE","wall_material":"MUD","seed":3597289808,"tile":"10/517/162"},"geometry":{"type":"Polygon","coordinates":[[[85.3215404,27.7188617],[85.3216231,27.7188961],[85.3215973,27.7189452],[85.3215146,27.7189107],[85.3215404,27.7188617]]]}},
{"type":"Feature","properties":{"osm_ref":2001562,"archetype":"HILL_VILLAGE","use":"HOUSE","levels":1,"flags":1,"height_cm":0,"min_height_cm":0,"roof_shape":"HIPPED","roof_material":"METAL","wall_material":"MUD","seed":2708306374,"tile":"10/517/162"},"geometry":{"type":"Polygon","coordinates":[[[85.3208567,27.7194467],[85.3209144,27.7195096],[85.3208672,27.7195438],[85.3208095,27.7194809],[85.3208567,27.7194467]]]}},
{"type":"Feature","properties":{"osm_ref":2001564,"archetype":"HILL_VILLAGE","use":"HOUSE","levels":2,"flags":1,"height_cm":0,"min_height_cm":0,"roof_shape":"HIPPED","roof_material":"THATCH","wall_material":"MUD","seed":946088060,"tile":"10/517/162"},"geometry":{"type":"Polygon","coordinates":[[[85.320087,27.7199463],[85.3201083,27.7200253],[85.3200491,27.7200379],[85.3200279,27.7199589],[85.320087,27.7199463]]]}},
{"type":"Feature","properties":{"osm_ref":2001566,"archetype":"HILL_VILLAGE","use":"HOUSE","levels":1,"flags":1,"height_cm":0,"min_height_cm":0,"roof_shape":"HIPPED","roof_material":"SLATE","wall_material":"MUD","seed":1331894506,"tile":"10/517/162"},"geometry":{"type":"Polygon","coordinates":[[[85.3191468,27.7198353],[85.3191274,27.7199147],[85.3190679,27.7199032],[85.3190873,27.7198239],[85.3191468,27.7198353]]]}},
{"type":"Feature","properties":{"osm_ref":2001568,"archetype":"HILL_VILLAGE","use":"HOUSE","levels":2,"flags":1,"height_cm":0,"min_height_cm":0,"roof_shape":"HIPPED","roof_material":"METAL","wall_material":"MUD","seed":3506933065,"tile":"10/517/162"},"geometry":{"type":"Polygon","coordinates":[[[85.3182279,27.7196114],[85.3181718,27.7196754],[85.3181238,27.7196421],[85.3181799,27.719578],[85.3182279,27.7196114]]]}},
{"type":"Feature","properties":{"osm_ref":2001570,"archetype":"HILL_VILLAGE","use":"HOUSE","levels":1,"flags":1,"height_cm":0,"min_height_cm":0,"roof_shape":"HIPPED","roof_material":"SLATE","wall_material":"MUD","seed":2785066463,"tile":"10/517/162"},"geometry":{"type":"Polygon","coordinates":[[[85.3177392,27.718888],[85.3176574,27.718924],[85.3176304,27.7188754],[85.3177122,27.7188394],[85.3177392,27.718888]]]}},
{"type":"Feature","properties":{"osm_ref":2001572,"archetype":"HILL_VILLAGE","use":"HOUSE","levels":2,"flags":1,"height_cm":0,"min_height_cm":0,"roof_shape":"HIPPED","roof_material":"THATCH","wall_material":"MUD","seed":1057614949,"tile":"10/517/162"},"geometry":{"type":"Polygon","coordinates":[[[85.3173631,27.718109],[85.3172718,27.7181099],[85.3172712,27.7180557],[85.3173624,27.7180548],[85.3173631,27.718109]]]}},
{"type":"Feature","properties":{"osm_ref":2001574,"archetype":"HILL_VILLAGE","use":"HOUSE","levels":1,"flags":1,"height_cm":0,"min_height_cm":0,"roof_shape":"HIPPED","roof_material":"METAL","wall_material":"MUD","seed":1208933619,"tile":"10/517/162"},"geometry":{"type":"Polygon","coordinates":[[[85.3176939,27.7173179],[85.3176112,27.7172835],[85.3176371,27.7172344],[85.3177197,27.7172689],[85.3176939,27.7173179]]]}},
{"type":"Feature","properties":{"osm_ref":2001576,"archetype":"HILL_VILLAGE","use":"HOUSE","levels":1,"flags":1,"height_cm":0,"min_height_cm":0,"roof_shape":"HIPPED","roof_material":"SLATE","wall_material":"MUD","seed":3635528034,"tile":"10/517/162"},"geometry":{"type":"Polygon","coordinates":[[[85.3181438,27.7165706],[85.3180861,27.7165076],[85.3181333,27.7164734],[85.3181909,27.7165364],[85.3181438,27.7165706]]]}},
{"type":"Feature","properties":{"osm_ref":2001578,"archetype":"HILL_VILLAGE","use":"HOUSE","levels":1,"flags":1,"height_cm":0,"min_height_cm":0,"roof_shape":"HIPPED","roof_material":"SLATE","wall_material":"MUD","seed":2948002292,"tile":"10/517/162"},"geometry":{"type":"Polygon","coordinates":[[[85.319045,27.7163075],[85.3190237,27.7162285],[85.3190829,27.7162159],[85.3191042,27.7162949],[85.319045,27.7163075]]]}},
{"type":"Feature","properties":{"osm_ref":2001580,"archetype":"HILL_VILLAGE","use":"HOUSE","levels":2,"flags":1,"height_cm":0,"min_height_cm":0,"roof_shape":"HIPPED","roof_material":"METAL","wall_material":"MUD","seed":3480320017,"tile":"10/517/162"},"geometry":{"type":"Polygon","coordinates":[[[85.319982,27.7161545],[85.3200014,27.7160752],[85.3200609,27.7160866],[85.3200415,27.716166],[85.319982,27.7161545]]]}},
{"type":"Feature","properties":{"osm_ref":2001582,"archetype":"HILL_VILLAGE","use":"HOUSE","levels":2,"flags":1,"height_cm":0,"min_height_cm":0,"roof_shape":"HIPPED","roof_material":"SLATE","wall_material":"MUD","seed":3094759559,"tile":"10/517/162"},"geometry":{"type":"Polygon","coordinates":[[[85.320775,27.7166176],[85.3208312,27.7165535],[85.3208792,27.7165868],[85.320823,27.7166509],[85.320775,27.7166176]]]}},
{"type":"Feature","properties":{"osm_ref":2001584,"archetype":"HILL_VILLAGE","use":"HOUSE","levels":2,"flags":1,"height_cm":0,"min_height_cm":0,"roof_shape":"HIPPED","roof_material":"METAL","wall_material":"MUD","seed":561977661,"tile":"10/517/162"},"geometry":{"type":"Polygon","coordinates":[[[85.3214937,27.7171742],[85.3215755,27.7171381],[85.3216025,27.7171867],[85.3215207,27.7172227],[85.3214937,27.7171742]]]}},
{"type":"Feature","properties":{"osm_ref":2001586,"archetype":"GOMPA","use":"RELIGIOUS","levels":2,"flags":1,"height_cm":0,"min_height_cm":0,"roof_shape":"HIPPED","roof_material":"UNKNOWN","wall_material":"UNKNOWN","seed":1450715563,"name":"Sample Gompa","name_en":"Sample Gompa","name_ne":"गुम्बा","tile":"10/517/162"},"geometry":{"type":"Polygon","coordinates":[[[85.3198787,27.7180701],[85.320058,27.7181007],[85.3200313,27.7182248],[85.319852,27.7181942],[85.3198787,27.7180701]]]}},
{"type":"Feature","properties":{"osm_ref":2001588,"archetype":"CHORTEN","use":"RELIGIOUS","levels":1,"flags":1,"height_cm":0,"min_height_cm":0,"roof_shape":"UNKNOWN","roof_material":"UNKNOWN","wall_material":"UNKNOWN","seed":3357326344,"tile":"10/517/162"},"geometry":{"type":"Polygon","coordinates":[[[85.3202803,27.7177833],[85.3202731,27.7177994],[85.3202552,27.7178061],[85.3202372,27.7177997],[85.3202296,27.7177838],[85.3202368,27.7177678],[85.3202547,27.717761],[85.3202727,27.7177674],[85.3202803,27.7177833]]]}},
{"type":"Feature","properties":{"osm_ref":2001590,"archetype":"TEAHOUSE","use":"HOTEL","levels":2,"flags":1,"height_cm":0,"min_height_cm":0,"roof_shape":"GABLED","roof_material":"METAL","wall_material":"UNKNOWN","seed":3206253726,"name":"Bhatti (sample)","name_en":"Bhatti (sample)","name_ne":"","tile":"10/517/162"},"geometry":{"type":"Polygon","coordinates":[[[85.3191892,27.7185655],[85.3193109,27.7185643],[85.3193119,27.7186455],[85.3191902,27.7186467],[85.3191892,27.7185655]]]}},
{"type":"Feature","properties":{"osm_ref":2001592,"archetype":"GENERIC","use":"HOUSE","levels":1,"flags":1,"height_cm":0,"min_height_cm":0,"roof_shape":"UNKNOWN","roof_material":"UNKNOWN","wall_material":"UNKNOWN","seed":638770468,"name":"Test: GENERIC","name_en":"Test: GENERIC","name_ne":"","tile":"10/517/162"},"geometry":{"type":"Polygon","coordinates":[[[85.3134882,27.7185069],[85.3136505,27.7185053],[85.313652,27.7186317],[85.3134897,27.7186332],[85.3134882,27.7185069]]]}},
{"type":"Feature","properties":{"osm_ref":2001594,"archetype":"TERAI","use":"HOUSE","levels":2,"flags":1,"height_cm":0,"min_height_cm":0,"roof_shape":"UNKNOWN","roof_material":"UNKNOWN","wall_material":"UNKNOWN","seed":1360391602,"name":"Test: TERAI","name_en":"Test: TERAI","name_ne":"","tile":"10/517/162"},"geometry":{"type":"Polygon","coordinates":[[[85.3137519,27.7185044],[85.3139142,27.7185028],[85.3139157,27.7186292],[85.3137534,27.7186307],[85.3137519,27.7185044]]]}},
{"type":"Feature","properties":{"osm_ref":2001596,"archetype":"SHERPA_HIMALAYAN","use":"HOUSE","levels":3,"flags":1,"height_cm":0,"min_height_cm":0,"roof_shape":"UNKNOWN","roof_material":"UNKNOWN","wall_material":"UNKNOWN","seed":3249205283,"name":"Test: SHERPA_HIMALAYAN","name_en":"Test: SHERPA_HIMALAYAN","name_ne":"","tile":"10/517/162"},"geometry":{"type":"Polygon","coordinates":[[[85.3140156,27.7185019],[85.3141779,27.7185003],[85.3141794,27.7186267],[85.3140171,27.7186282],[85.3140156,27.7185019]]]}},
{"type":"Feature","properties":{"osm_ref":2001598,"archetype":"TRANS_HIMALAYAN","use":"HOUSE","levels":4,"flags":1,"height_cm":0,"min_height_cm":0,"roof_shape":"UNKNOWN","roof_material":"UNKNOWN","wall_material":"UNKNOWN","seed":3064840373,"name":"Test: TRANS_HIMALAYAN","name_en":"Test: TRANS_HIMALAYAN","name_ne":"","tile":"10/517/162"},"geometry":{"type":"Polygon","coordinates":[[[85.3142793,27.7184994],[85.3144415,27.7184978],[85.3144431,27.7186242],[85.3142808,27.7186257],[85.3142793,27.7184994]]]}},
{"type":"Feature","properties":{"osm_ref":2001600,"archetype":"MOSQUE","use":"RELIGIOUS","levels":1,"flags":1,"height_cm":0,"min_height_cm":0,"roof_shape":"UNKNOWN","roof_material":"UNKNOWN","wall_material":"UNKNOWN","seed":368018533,"name":"Test: MOSQUE","name_en":"Test: MOSQUE","name_ne":"","tile":"10/517/162"},"geometry":{"type":"Polygon","coordinates":[[[85.314543,27.7184969],[85.3147052,27.7184953],[85.3147067,27.7186217],[85.3145445,27.7186232],[85.314543,27.7184969]]]}},
{"type":"Feature","properties":{"osm_ref":2001602,"archetype":"CHURCH","use":"RELIGIOUS","levels":2,"flags":1,"height_cm":0,"min_height_cm":0,"roof_shape":"UNKNOWN","roof_material":"UNKNOWN","wall_material":"UNKNOWN","seed":1659417843,"name":"Test: CHURCH","name_en":"Test: CHURCH","name_ne":"","tile":"10/517/162"},"geometry":{"type":"Polygon","coordinates":[[[85.3148066,27.7184944],[85.3149689,27.7184928],[85.3149704,27.7186192],[85.3148082,27.7186207],[85.3148066,27.7184944]]]}},
{"type":"Feature","properties":{"osm_ref":2001604,"archetype":"INSTITUTIONAL","use":"HOUSE","levels":3,"flags":1,"height_cm":0,"min_height_cm":0,"roof_shape":"UNKNOWN","roof_material":"UNKNOWN","wall_material":"UNKNOWN","seed":4225885513,"name":"Test: INSTITUTIONAL","name_en":"Test: INSTITUTIONAL","name_ne":"","tile":"10/517/162"},"geometry":{"type":"Polygon","coordinates":[[[85.3150703,27.7184918],[85.3152326,27.7184903],[85.3152341,27.7186167],[85.3150718,27.7186182],[85.3150703,27.7184918]]]}},
{"type":"Feature","properties":{"osm_ref":2001606,"archetype":"HILL_VILLAGE","use":"HOUSE","levels":4,"flags":1,"height_cm":0,"min_height_cm":0,"roof_shape":"UNKNOWN","roof_material":"UNKNOWN","wall_material":"UNKNOWN","seed":2363938271,"name":"Test: HILL_VILLAGE","name_en":"Test: HILL_VILLAGE","name_ne":"","tile":"10/517/162"},"geometry":{"type":"Polygon","coordinates":[[[85.315334,27.7184893],[85.3154963,27.7184878],[85.3154978,27.7186142],[85.3153355,27.7186157],[85.315334,27.7184893]]]}},
{"type":"Feature","properties":{"osm_ref":2001608,"archetype":"NEWAR","use":"HOUSE","levels":1,"flags":1,"height_cm":0,"min_height_cm":0,"roof_shape":"UNKNOWN","roof_material":"UNKNOWN","wall_material":"UNKNOWN","seed":310526076,"name":"Test: NEWAR","name_en":"Test: NEWAR","name_ne":"","tile":"10/517/162"},"geometry":{"type":"Polygon","coordinates":[[[85.3155977,27.7184868],[85.31576,27.7184853],[85.3157615,27.7186116],[85.3155992,27.7186132],[85.3155977,27.7184868]]]}},
{"type":"Feature","properties":{"osm_ref":2001610,"archetype":"MODERN_URBAN","use":"HOUSE","levels":2,"flags":1,"height_cm":0,"min_height_cm":0,"roof_shape":"UNKNOWN","roof_material":"UNKNOWN","wall_material":"UNKNOWN","seed":1703244010,"name":"Test: MODERN_URBAN","name_en":"Test: MODERN_URBAN","name_ne":"","tile":"10/517/162"},"geometry":{"type":"Polygon","coordinates":[[[85.3158614,27.7184843],[85.3160237,27.7184828],[85.3160252,27.7186091],[85.3158629,27.7186107],[85.3158614,27.7184843]]]}},
{"type":"Feature","properties":{"osm_ref":2001612,"archetype":"GENERIC","use":"HOUSE","levels":4,"flags":1,"height_cm":0,"min_height_cm":0,"roof_shape":"FLAT","roof_material":"UNKNOWN","wall_material":"PLASTER","seed":4237042000,"tile":"10/517/162"},"geometry":{"type":"Polygon","coordinates":[[[85.314037,27.7167024],[85.3141074,27.7167593],[85.3140466,27.7168189],[85.3139762,27.716762],[85.314037,27.7167024]]]}},
{"type":"Feature","properties":{"osm_ref":2001614,"archetype":"GENERIC","use":"HOUSE","levels":2,"flags":1,"height_cm":0,"min_height_cm":0,"roof_shape":"FLAT","roof_material":"UNKNOWN","wall_material":"PLASTER","seed":2341147078,"tile":"10/517/162"},"geometry":{"type":"Polygon","coordinates":[[[85.313747,27.7195521],[85.3137633,27.719634],[85.3136812,27.7196469],[85.3136649,27.7195651],[85.313747,27.7195521]]]}},
{"type":"Feature","properties":{"osm_ref":2001616,"archetype":"MODERN_URBAN","use":"HOUSE","levels":2,"flags":1,"height_cm":0,"min_height_cm":0,"roof_shape":"FLAT","roof_material":"UNKNOWN","wall_material":"PLASTER","seed":456395863,"tile":"10/517/162"},"geometry":{"type":"Polygon","coordinates":[[[85.3157147,27.7197894],[85.3157334,27.7198683],[85.3156339,27.719887],[85.3156152,27.719808],[85.3157147,27.7197894]]]}},
{"type":"Feature","properties":{"osm_ref":2001618,"archetype":"MODERN_URBAN","use":"HOUSE","levels":4,"flags":1,"height_cm":0,"min_height_cm":0,"roof_shape":"FLAT","roof_material":"UNKNOWN","wall_material":"PLASTER","seed":1815297217,"tile":"10/517/162"},"geometry":{"type":"Polygon","coordinates":[[[85.3132604,27.7171799],[85.3133754,27.7171905],[85.3133672,27.7172607],[85.3132522,27.71725],[85.3132604,27.7171799]]]}},
{"type":"Feature","properties":{"osm_ref":2001620,"archetype":"MODERN_URBAN","use":"HOUSE","levels":2,"flags":1,"height_cm":0,"min_height_cm":0,"roof_shape":"FLAT","roof_material":"UNKNOWN","wall_material":"PLASTER","seed":217363748,"tile":"10/517/162"},"geometry":{"type":"Polygon","coordinates":[[[85.3137556,27.7178997],[85.3138494,27.7179434],[85.3138028,27.7180226],[85.313709,27.7179789],[85.3137556,27.7178997]]]}},
{"type":"Feature","properties":{"osm_ref":2001622,"archetype":"GENERIC","use":"HOUSE","levels":3,"flags":1,"height_cm":0,"min_height_cm":0,"roof_shape":"FLAT","roof_material":"UNKNOWN","wall_material":"PLASTER","seed":2079557042,"tile":"10/517/162"},"geometry":{"type":"Polygon","coordinates":[[[85.3154554,27.7181596],[85.3155516,27.7181928],[85.3155214,27.7182622],[85.3154252,27.718229],[85.3154554,27.7181596]]]}},
{"type":"Feature","properties":{"osm_ref":2001624,"archetype":"GENERIC","use":"HOUSE","levels":3,"flags":1,"height_cm":0,"min_height_cm":0,"roof_shape":"FLAT","roof_material":"UNKNOWN","wall_material":"PLASTER","seed":3808089096,"tile":"10/517/162"},"geometry":{"type":"Polygon","coordinates":[[[85.3164167,27.7193388],[85.3164314,27.7194372],[85.3163435,27.7194476],[85.3163289,27.7193492],[85.3164167,27.7193388]]]}},
{"type":"Feature","properties":{"osm_ref":2001626,"archetype":"GENERIC","use":"HOUSE","levels":2,"flags":1,"height_cm":0,"min_height_cm":0,"roof_shape":"FLAT","roof_material":"UNKNOWN","wall_material":"PLASTER","seed":2516444318,"tile":"10/517/162"},"geometry":{"type":"Polygon","coordinates":[[[85.3167476,27.7180698],[85.3168537,27.7181072],[85.3168128,27.7181992],[85.3167067,27.7181618],[85.3167476,27.7180698]]]}},
{"type":"Feature","properties":{"osm_ref":2001628,"archetype":"GENERIC","use":"HOUSE","levels":2,"flags":1,"height_cm":0,"min_height_cm":0,"roof_shape":"FLAT","roof_material":"UNKNOWN","wall_material":"PLASTER","seed":194605373,"tile":"10/517/162"},"geometry":{"type":"Polygon","coordinates":[[[85.3140672,27.718015],[85.3141407,27.7180972],[85.3140657,27.7181503],[85.3139922,27.718068],[85.3140672,27.718015]]]}},
{"type":"Feature","properties":{"osm_ref":2001630,"archetype":"MODERN_URBAN","use":"HOUSE","levels":2,"flags":1,"height_cm":0,"min_height_cm":0,"roof_shape":"FLAT","roof_material":"UNKNOWN","wall_material":"PLASTER","seed":2090746283,"tile":"10/517/162"},"geometry":{"type":"Polygon","coordinates":[[[85.3225317,27.7189555],[85.3225532,27.7190432],[85.3224666,27.7190601],[85.322445,27.7189724],[85.3225317,27.7189555]]]}},
{"type":"Feature","properties":{"osm_ref":2001632,"archetype":"MODERN_URBAN","use":"HOUSE","levels":2,"flags":1,"height_cm":0,"min_height_cm":0,"roof_shape":"FLAT","roof_material":"UNKNOWN","wall_material":"PLASTER","seed":3851882513,"tile":"10/517/162"},"geometry":{"type":"Polygon","coordinates":[[[85.3165348,27.717549],[85.3165853,27.7176219],[85.316511,27.7176626],[85.3164606,27.7175897],[85.3165348,27.717549]]]}},
{"type":"Feature","properties":{"osm_ref":2001634,"archetype":"GENERIC","use":"HOUSE","levels":3,"flags":1,"height_cm":0,"min_height_cm":0,"roof_shape":"FLAT","roof_material":"UNKNOWN","wall_material":"PLASTER","seed":2458919047,"tile":"10/517/162"},"geometry":{"type":"Polygon","coordinates":[[[85.3142844,27.719944],[85.314379,27.7200014],[85.3143362,27.7200574],[85.3142416,27.72],[85.3142844,27.719944]]]}},
{"type":"Feature","properties":{"osm_ref":2001636,"archetype":"GENERIC","use":"HOUSE","levels":3,"flags":1,"height_cm":0,"min_height_cm":0,"roof_shape":"FLAT","roof_material":"UNKNOWN","wall_material":"PLASTER","seed":36650262,"tile":"10/517/162"},"geometry":{"type":"Polygon","coordinates":[[[85.3222831,27.7177562],[85.3223562,27.7178486],[85.3222869,27.717892],[85.3222138,27.7177995],[85.3222831,27.7177562]]]}},
{"type":"Feature","properties":{"osm_ref":2001638,"archetype":"MODERN_URBAN","use":"HOUSE","levels":4,"flags":1,"height_cm":0,"min_height_cm":0,"roof_shape":"FLAT","roof_material":"UNKNOWN","wall_material":"PLASTER","seed":1965559168,"tile":"10/517/162"},"geometry":{"type":"Polygon","coordinates":[[[85.3219325,27.7198528],[85.3220329,27.7198672],[85.322021,27.7199331],[85.3219205,27.7199187],[85.3219325,27.7198528]]]}},
{"type":"Feature","properties":{"osm_ref":2001640,"archetype":"GENERIC","use":"HOUSE","levels":3,"flags":1,"height_cm":0,"min_height_cm":0,"roof_shape":"FLAT","roof_material":"UNKNOWN","wall_material":"PLASTER","seed":668591847,"tile":"10/517/162"},"geometry":{"type":"Polygon","coordinates":[[[85.3170902,27.7161825],[85.3172144,27.7162007],[85.3172019,27.716268],[85.3170777,27.7162498],[85.3170902,27.7161825]]]}},
{"type":"Feature","properties":{"osm_ref":2001642,"archetype":"GENERIC","use":"HOUSE","levels":2,"flags":1,"height_cm":0,"min_height_cm":0,"roof_shape":"FLAT","roof_material":"UNKNOWN","wall_material":"PLASTER","seed":1356781169,"tile":"10/517/162"},"geometry":{"type":"Polygon","coordinates":[[[85.3163994,27.7163628],[85.316473,27.716439],[85.3164162,27.7164825],[85.3163425,27.7164063],[85.3163994,27.7163628]]]}},
{"type":"Feature","properties":{"osm_ref":2001644,"archetype":"GENERIC","use":"HOUSE","levels":3,"flags":1,"height_cm":0,"min_height_cm":0,"roof_shape":"FLAT","roof_material":"UNKNOWN","wall_material":"PLASTER","seed":3386345419,"tile":"10/517/162"},"geometry":{"type":"Polygon","coordinates":[[[85.3156332,27.7195879],[85.3157241,27.7196327],[85.3156838,27.7196976],[85.3155928,27.7196528],[85.3156332,27.7195879]]]}},
{"type":"Feature","properties":{"osm_ref":2001646,"archetype":"GENERIC","use":"HOUSE","levels":4,"flags":1,"height_cm":0,"min_height_cm":0,"roof_shape":"FLAT","roof_material":"UNKNOWN","wall_material":"PLASTER","seed":3201349469,"tile":"10/517/162"},"geometry":{"type":"Polygon","coordinates":[[[85.3218632,27.7191843],[85.321975,27.7191864],[85.3219732,27.7192608],[85.3218614,27.7192586],[85.3218632,27.7191843]]]}},
{"type":"Feature","properties":{"osm_ref":2001648,"archetype":"GENERIC","use":"HOUSE","levels":2,"flags":1,"height_cm":0,"min_height_cm":0,"roof_shape":"FLAT","roof_material":"UNKNOWN","wall_material":"PLASTER","seed":548676350,"tile":"10/517/162"},"geometry":{"type":"Polygon","coordinates":[[[85.3219375,27.7160359],[85.3220359,27.7160761],[85.322005,27.7161361],[85.3219066,27.716096],[85.3219375,27.7160359]]]}},
{"type":"Feature","properties":{"osm_ref":2001650,"archetype":"MODERN_URBAN","use":"HOUSE","levels":2,"flags":1,"height_cm":0,"min_height_cm":0,"roof_shape":"FLAT","roof_material":"UNKNOWN","wall_material":"PLASTER","seed":1471353448,"tile":"10/517/162"},"geometry":{"type":"Polygon","coordinates":[[[85.3134618,27.7181782],[85.3135782,27.7181789],[85.3135775,27.7182754],[85.3134611,27.7182747],[85.3134618,27.7181782]]]}},
{"type":"Feature","properties":{"osm_ref":2001652,"archetype":"MODERN_URBAN","use":"HOUSE","levels":4,"flags":1,"height_cm":0,"min_height_cm":0,"roof_shape":"FLAT","roof_material":"UNKNOWN","wall_material":"PLASTER","seed":3468313554,"tile":"10/517/162"},"geometry":{"type":"Polygon","coordinates":[[[85.3138589,27.718216],[85.3139363,27.7182378],[85.3139028,27.7183322],[85.3138254,27.7183104],[85.3138589,27.718216]]]}},
{"type":"Feature","properties":{"osm_ref":2001654,"archetype":"MODERN_URBAN","use":"HOUSE","levels":4,"flags":1,"height_cm":0,"min_height_cm":0,"roof_shape":"FLAT","roof_material":"UNKNOWN","wall_material":"PLASTER","seed":3116200772,"tile":"10/517/162"},"geometry":{"type":"Polygon","coordinates":[[[85.3220066,27.7194641],[85.3221033,27.7195184],[85.3220552,27.7195862],[85.3219585,27.719532],[85.3220066,27.7194641]]]}},
{"type":"Feature","properties":{"osm_ref":2001656,"archetype":"GENERIC","use":"HOUSE","levels":4,"flags":1,"height_cm":0,"min_height_cm":0,"roof_shape":"FLAT","roof_material":"UNKNOWN","wall_material":"PLASTER","seed":688025301,"tile":"10/517/162"},"geometry":{"type":"Polygon","coordinates":[[[85.3137985,27.7197823],[85.3138186,27.7198938],[85.3137184,27.7199081],[85.3136984,27.7197966],[85.3137985,27.7197823]]]}},
{"type":"Feature","properties":{"osm_ref":2001658,"archetype":"GENERIC","use":"HOUSE","levels":3,"flags":1,"height_cm":0,"min_height_cm":0,"roof_shape":"FLAT","roof_material":"UNKNOWN","wall_material":"PLASTER","seed":1577410115,"tile":"10/517/162"},"geometry":{"type":"Polygon","coordinates":[[[85.3164949,27.7180003],[85.3166072,27.7180074],[85.3166021,27.7180719],[85.3164897,27.7180647],[85.3164949,27.7180003]]]}},
{"type":"Feature","properties":{"osm_ref":2001660,"archetype":"MODERN_URBAN","use":"HOUSE","levels":3,"flags":1,"height_cm":0,"min_height_cm":0,"roof_shape":"FLAT","roof_material":"UNKNOWN","wall_material":"PLASTER","seed":1052956582,"tile":"10/517/162"},"geometry":{"type":"Polygon","coordinates":[[[85.3224165,27.7161826],[85.3225136,27.7162423],[85.3224595,27.716312],[85.3223624,27.7162523],[85.3224165,27.7161826]]]}},
{"type":"Feature","properties":{"osm_ref":2001662,"archetype":"GENERIC","use":"HOUSE","levels":4,"flags":1,"height_cm":0,"min_height_cm":0,"roof_shape":"FLAT","roof_material":"UNKNOWN","wall_material":"PLASTER","seed":1237706544,"tile":"10/517/162"},"geometry":{"type":"Polygon","coordinates":[[[85.3167043,27.7194546],[85.3167985,27.7194992],[85.3167562,27.7195701],[85.3166619,27.7195256],[85.3167043,27.7194546]]]}},
{"type":"Feature","properties":{"osm_ref":2001664,"archetype":"GENERIC","use":"HOUSE","levels":3,"flags":1,"height_cm":0,"min_height_cm":0,"roof_shape":"FLAT","roof_material":"UNKNOWN","wall_material":"PLASTER","seed":3503077002,"tile":"10/517/162"},"geometry":{"type":"Polygon","coordinates":[[[85.3179682,27.7198856],[85.3180429,27.7199774],[85.3179605,27.7200306],[85.3178858,27.7199388],[85.3179682,27.7198856]]]}},
{"type":"Feature","properties":{"osm_ref":2001666,"archetype":"MODERN_URBAN","use":"HOUSE","levels":4,"flags":1,"height_cm":0,"min_height_cm":0,"roof_shape":"FLAT","roof_material":"UNKNOWN","wall_material":"PLASTER","seed":2815133212,"tile":"10/517/162"},"geometry":{"type":"Polygon","coordinates":[[[85.3174189,27.7160855],[85.31743,27.7161593],[85.317339,27.7161701],[85.3173279,27.7160962],[85.3174189,27.7160855]]]}},
{"type":"Feature","properties":{"osm_ref":2001668,"archetype":"GENERIC","use":"HOUSE","levels":3,"flags":1,"height_cm":0,"min_height_cm":0,"roof_shape":"FLAT","roof_material":"UNKNOWN","wall_material":"PLASTER","seed":967775167,"tile":"10/517/162"},"geometry":{"type":"Polygon","coordinates":[[[85.3159339,27.7160468],[85.3160189,27.7161131],[85.3159507,27.7161824],[85.3158656,27.716116],[85.3159339,27.7160468]]]}},
{"type":"Feature","properties":{"osm_ref":2001670,"archetype":"GENERIC","use":"HOUSE","levels":3,"flags":1,"height_cm":0,"min_height_cm":0,"roof_shape":"FLAT","roof_material":"UNKNOWN","wall_material":"PLASTER","seed":1319641897,"tile":"10/517/162"},"geometry":{"type":"Polygon","coordinates":[[[85.313752,27.7199203],[85.3138561,27.7199574],[85.3138231,27.7200309],[85.313719,27.7199937],[85.313752,27.7199203]]]}},
{"type":"Feature","properties":{"osm_ref":2001672,"archetype":"GENERIC","use":"HOUSE","levels":2,"flags":1,"height_cm":0,"min_height_cm":0,"roof_shape":"FLAT","roof_material":"UNKNOWN","wall_material":"PLASTER","seed":3617682067,"tile":"10/517/162"},"geometry":{"type":"Polygon","coordinates":[[[85.3144636,27.7199281],[85.3145314,27.7199979],[85.3144495,27.7200609],[85.3143817,27.7199911],[85.3144636,27.7199281]]]}},
{"type":"Feature","properties":{"osm_ref":2001674,"archetype":"GENERIC","use":"HOUSE","levels":4,"flags":1,"height_cm":0,"min_height_cm":0,"roof_shape":"FLAT","roof_material":"UNKNOWN","wall_material":"PLASTER","seed":2695250437,"tile":"10/517/162"},"geometry":{"type":"Polygon","coordinates":[[[85.3157699,27.716859],[85.3157809,27.716936],[85.3156994,27.7169453],[85.3156884,27.7168683],[85.3157699,27.716859]]]}},
{"type":"Feature","properties":{"osm_ref":2001676,"archetype":"GENERIC","use":"HOUSE","levels":3,"flags":1,"height_cm":0,"min_height_cm":0,"roof_shape":"FLAT","roof_material":"UNKNOWN","wall_material":"PLASTER","seed":806969236,"tile":"10/517/162"},"geometry":{"type":"Polygon","coordinates":[[[85.3133295,27.7181654],[85.3134022,27.7182113],[85.3133527,27.7182734],[85.31328,27.7182275],[85.3133295,27.7181654]]]}},
{"type":"Feature","properties":{"osm_ref":2001678,"archetype":"GENERIC","use":"HOUSE","levels":2,"flags":1,"height_cm":0,"min_height_cm":0,"roof_shape":"FLAT","roof_material":"UNKNOWN","wall_material":"PLASTER","seed":1193176834,"tile":"10/517/162"},"geometry":{"type":"Polygon","coordinates":[[[85.316646,27.7166265],[85.3167372,27.7166941],[85.3166667,27.7167693],[85.3165756,27.7167017],[85.316646,27.7166265]]]}}
]}
