{"type":"FeatureCollection","name":"areas","features":[
{"type":"Feature","properties":{"osm_ref":2001682,"kind":"PARK","flags":0,"name":"Sapana Bagaincha (sample)","name_en":"Sapana Bagaincha (sample)","name_ne":"सपना बगैंचा","tile":"10/516/162"},"geometry":{"type":"Polygon","coordinates":[[[85.3106407,27.7153295],[85.3105805,27.7145358],[85.3120008,27.7145675],[85.3119593,27.7153351],[85.3106407,27.7153295]]]}},
{"type":"Feature","properties":{"osm_ref":2001684,"kind":"PEDESTRIAN","flags":0,"name":"Bazaar Chowk","name_en":"Bazaar Chowk","name_ne":"बजार चोक","tile":"10/516/162"},"geometry":{"type":"Polygon","coordinates":[[[85.3063156,27.7183672],[85.3063016,27.7171939],[85.3085834,27.7171723],[85.3085974,27.7183456],[85.3063156,27.7183672]]]}},
{"type":"Feature","properties":{"osm_ref":2001686,"kind":"RELIGIOUS","flags":0,"tile":"10/516/162"},"geometry":{"type":"Polygon","coordinates":[[[85.3067202,27.7182731],[85.3067148,27.7178218],[85.3075768,27.7178137],[85.3075822,27.7182649],[85.3067202,27.7182731]]]}},
{"type":"Feature","properties":{"osm_ref":2001688,"kind":"RESIDENTIAL","flags":0,"tile":"10/516/162"},"geometry":{"type":"Polygon","coordinates":[[[85.3032916,27.7156878],[85.3032422,27.7115361],[85.3083127,27.7114883],[85.3083623,27.7156399],[85.3032916,27.7156878]]]}},
{"type":"Feature","properties":{"osm_ref":2001690,"kind":"COMMERCIAL","flags":0,"name":"Thamel bazaar area","name_en":"Thamel bazaar area","name_ne":"","tile":"10/516/162"},"geometry":{"type":"Polygon","coordinates":[[[85.3035491,27.7202888],[85.3035008,27.7162274],[85.3115126,27.7161517],[85.3115612,27.7202131],[85.3035491,27.7202888]]]}},
{"type":"Feature","properties":{"osm_ref":2001692,"kind":"RESIDENTIAL","flags":1,"tile":"10/516/162"},"geometry":{"type":"Polygon","coordinates":[[[85.3114112,27.7161526],[85.3126688,27.7161407],[85.3127163,27.7201119],[85.3114587,27.7201238],[85.3114112,27.7161526]]]}},
{"type":"Feature","properties":{"osm_ref":2001700,"kind":"SAND_SHINGLE","flags":0,"tile":"10/516/162"},"geometry":{"type":"Polygon","coordinates":[[[85.302528,27.7111818],[85.3032379,27.7111751],[85.3033478,27.720417],[85.3026379,27.7204237],[85.302528,27.7111818]]]}},
{"type":"Feature","properties":{"osm_ref":2001680,"kind":"WATER_POND","flags":0,"name":"Pokhari (sample)","name_en":"Pokhari (sample)","name_ne":"पोखरी","tile":"10/517/162"},"geometry":{"type":"Polygon","coordinates":[[[85.3139271,27.7145041],[85.3139184,27.713782],[85.3151354,27.7137705],[85.3151441,27.7144925],[85.3139271,27.7145041]],[[85.3146823,27.7140456],[85.3143781,27.7140485],[85.3143802,27.714229],[85.3146845,27.7142261],[85.3146823,27.7140456]]]}},
{"type":"Feature","properties":{"osm_ref":2001692,"kind":"RESIDENTIAL","flags":1,"tile":"10/517/162"},"geometry":{"type":"Polygon","coordinates":[[[85.3145013,27.7200949],[85.3127163,27.7201119],[85.3126688,27.7161407],[85.3144537,27.7161238],[85.3145013,27.7200949]]]}},
{"type":"Feature","properties":{"osm_ref":2001694,"kind":"FOREST","flags":0,"name":"Ban (sample forest)","name_en":"Ban (sample forest)","name_ne":"वन","tile":"10/517/162"},"geometry":{"type":"Polygon","coordinates":[[[85.3209314,27.7178304],[85.3210695,27.7180466],[85.3211618,27.7182984],[85.3211698,27.7185689],[85.3210727,27.7188251],[85.3208769,27.7190318],[85.3206129,27.7191659],[85.320323,27.7192263],[85.3200437,27.7192332],[85.3197921,27.7192189],[85.3195621,27.7192118],[85.3193324,27.7192233],[85.3190812,27.7192424],[85.3188018,27.7192408],[85.3185105,27.719186],[85.3182434,27.7190569],[85.3180426,27.718854],[85.3179394,27.7185997],[85.3179408,27.7183292],[85.318027,27.7180756],[85.3181599,27.7178568],[85.3182996,27.7176701],[85.3184215,27.7174964],[85.3185252,27.7173136],[85.3186322,27.7171104],[85.3187736,27.7168959],[85.3189725,27.7166989],[85.3192317,27.7165575],[85.3195295,27.7165042],[85.3198286,27.7165518],[85.3200911,27.7166882],[85.3202948,27.7168814],[85.3204412,27.7170932],[85.3205531,27.7172943],[85.3206612,27.7174751],[85.3207872,27.7176464],[85.3209314,27.7178304]]]}},
{"type":"Feature","properties":{"osm_ref":2001696,"kind":"FARMLAND","flags":0,"tile":"10/517/162"},"geometry":{"type":"MultiPolygon","coordinates":[[[[85.3154191,27.7120528],[85.3154104,27.7113308],[85.3169316,27.7113163],[85.3169402,27.7120383],[85.3154191,27.7120528]]],[[[85.3176512,27.7121218],[85.3176414,27.7113095],[85.3194679,27.7113824],[85.3193773,27.7122859],[85.3176512,27.7121218]]]]}},
{"type":"Feature","properties":{"osm_ref":2001698,"kind":"PITCH","flags":0,"name":"Khel Maidan","name_en":"Khel Maidan","name_ne":"खेल मैदान","tile":"10/517/162"},"geometry":{"type":"Polygon","coordinates":[[[85.3221514,27.7152381],[85.3221416,27.7144258],[85.3228514,27.714419],[85.3228612,27.7152313],[85.3221514,27.7152381]]]}},
{"type":"Feature","properties":{"osm_ref":2001702,"kind":"ORCHARD","flags":0,"tile":"10/517/162"},"geometry":{"type":"Polygon","coordinates":[[[85.3224212,27.7165895],[85.3224103,27.7156869],[85.3230188,27.7156811],[85.3230297,27.7165837],[85.3224212,27.7165895]]]}}
]}
