{"type":"FeatureCollection","name":"lines","features":[
{"type":"Feature","properties":{"osm_way_id":1000852,"kind":"STREAM","flags":0,"width_cm":600,"name":"Khola (sample)","name_en":"Khola (sample)","name_ne":"खोला","tile":"10/516/162"},"geometry":{"type":"LineString","coordinates":[[85.3028323,27.7111789],[85.3028765,27.711359],[85.3029603,27.7117193],[85.3030307,27.7120797],[85.3030804,27.7124403],[85.3031045,27.7128011],[85.3031007,27.7131622],[85.30307,27.7135235],[85.3030162,27.7138851],[85.3029457,27.7142468],[85.3028667,27.7146086],[85.3027884,27.7149704],[85.3027199,27.7153321],[85.3026692,27.7156936],[85.3026424,27.7160549],[85.3026428,27.716416],[85.302671,27.7167768],[85.3027242,27.7171373],[85.3027971,27.7174977],[85.3028822,27.7178579],[85.3029705,27.7182182],[85.3030528,27.7185784],[85.3031205,27.7189389],[85.3031666,27.7192995],[85.3031866,27.7196603],[85.3031787,27.7200215],[85.3031441,27.7203828]]}},
{"type":"Feature","properties":{"osm_way_id":1000855,"kind":"CITY_WALL","flags":0,"width_cm":0,"name":"Purano Parkhal","name_en":"Purano Parkhal","name_ne":"पुरानो पर्खाल","tile":"10/516/162"},"geometry":{"type":"LineString","coordinates":[[85.3033458,27.7117157],[85.3033747,27.7141525],[85.3056058,27.7141315]]}},
{"type":"Feature","properties":{"osm_way_id":1000853,"kind":"CANAL","flags":0,"width_cm":300,"name":"Kulo (sample canal)","name_en":"Kulo (sample canal)","name_ne":"कुलो","tile":"10/517/162"},"geometry":{"type":"LineString","coordinates":[[85.3149011,27.7110648],[85.3149637,27.7146747],[85.3150118,27.7203067]]}},
{"type":"Feature","properties":{"osm_way_id":1000854,"kind":"DITCH","flags":4,"width_cm":0,"tile":"10/517/162"},"geometry":{"type":"LineString","coordinates":[[85.3154191,27.7120528],[85.3169404,27.7120564]]}},
{"type":"Feature","properties":{"osm_way_id":1000856,"kind":"MANI_WALL","flags":0,"width_cm":0,"name":"Mani wall (sample)","name_en":"Mani wall (sample)","name_ne":"","tile":"10/517/162"},"geometry":{"type":"LineString","coordinates":[[85.3197457,27.7176079],[85.3201508,27.7175589]]}},
{"type":"Feature","properties":{"osm_way_id":1000857,"kind":"CABLE_CAR","flags":0,"width_cm":0,"name":"Test cable car","name_en":"Test cable car","name_ne":"","tile":"10/517/162"},"geometry":{"type":"LineString","coordinates":[[85.3221568,27.7156894],[85.3196502,27.7181053]]}}
]}
