{"type":"FeatureCollection","name":"pois","features":[
{"type":"Feature","properties":{"osm_ref":4003432,"kind":"TEMPLE_HINDU","flags":11,"importance":220,"ele_dm":0,"name":"Ganesh Mandir","name_en":"Ganesh Mandir","name_ne":"गणेश मन्दिर","search_id":1,"tile":"10/516/162"},"geometry":{"type":"Point","coordinates":[85.3069198,27.7180004]}},
{"type":"Feature","properties":{"osm_ref":4003436,"kind":"TEMPLE_HINDU","flags":9,"importance":120,"ele_dm":0,"name":"Shiva Mandir","name_en":"Shiva Mandir","name_ne":"शिव मन्दिर","search_id":2,"tile":"10/516/162"},"geometry":{"type":"Point","coordinates":[85.3073734,27.7177705]}},
{"type":"Feature","properties":{"osm_ref":4003440,"kind":"STUPA","flags":11,"importance":200,"ele_dm":0,"name":"Kathe Chaitya","name_en":"Kathe Chaitya","name_ne":"काठे चैत्य","search_id":3,"tile":"10/516/162"},"geometry":{"type":"Point","coordinates":[85.3079771,27.7173586]}},
{"type":"Feature","properties":{"osm_ref":4003444,"kind":"SHRINE","flags":9,"importance":40,"ele_dm":0,"name":"Sano Devalaya","name_en":"Sano Devalaya","name_ne":"सानो देवालय","search_id":4,"tile":"10/516/162"},"geometry":{"type":"Point","coordinates":[85.3065583,27.7174622]}},
{"type":"Feature","properties":{"osm_ref":4003468,"kind":"PLACE_OF_WORSHIP","flags":8,"importance":10,"ele_dm":0,"search_id":10,"tile":"10/516/162"},"geometry":{"type":"Point","coordinates":[85.3045842,27.7135093]}},
{"type":"Feature","properties":{"osm_ref":4003472,"kind":"HERITAGE_SQUARE","flags":3,"importance":210,"ele_dm":0,"name":"Bazaar Chowk","name_en":"Bazaar Chowk","name_ne":"बजार चोक","search_id":11,"tile":"10/516/162"},"geometry":{"type":"Point","coordinates":[85.3074242,27.71777]}},
{"type":"Feature","properties":{"osm_ref":4003476,"kind":"STONE_TAP","flags":1,"importance":90,"ele_dm":0,"name":"Hiti (stone spout)","name_en":"Hiti (stone spout)","name_ne":"हिटी","search_id":12,"tile":"10/516/162"},"geometry":{"type":"Point","coordinates":[85.3042875,27.7141439]}},
{"type":"Feature","properties":{"osm_ref":4003480,"kind":"CITY_GATE","flags":1,"importance":60,"ele_dm":0,"name":"Dhoka (sample gate)","name_en":"Dhoka (sample gate)","name_ne":"ढोका","search_id":13,"tile":"10/516/162"},"geometry":{"type":"Point","coordinates":[85.3033608,27.7129792]}},
{"type":"Feature","properties":{"osm_ref":4003484,"kind":"MUSEUM","flags":1,"importance":110,"ele_dm":0,"name":"Chowk Ghar museum","name_en":"Chowk Ghar museum","name_ne":"संग्रहालय","search_id":14,"tile":"10/516/162"},"geometry":{"type":"Point","coordinates":[85.3067522,27.7124508]}},
{"type":"Feature","properties":{"osm_ref":4003488,"kind":"PALACE","flags":3,"importance":150,"ele_dm":0,"name":"Sample Durbar","name_en":"Sample Durbar","name_ne":"दरबार","search_id":15,"tile":"10/516/162"},"geometry":{"type":"Point","coordinates":[85.3083257,27.7125713]}},
{"type":"Feature","properties":{"osm_ref":4003492,"kind":"MONUMENT","flags":1,"importance":70,"ele_dm":0,"name":"Sahid Stambha (sample)","name_en":"Sahid Stambha (sample)","name_ne":"शहीद स्तम्भ","search_id":16,"tile":"10/516/162"},"geometry":{"type":"Point","coordinates":[85.3077657,27.7166385]}},
{"type":"Feature","properties":{"osm_ref":4003512,"kind":"NOTABLE_TREE","flags":1,"importance":50,"ele_dm":0,"name":"Pipal Bot","name_en":"Pipal Bot","name_ne":"पिपल बोट","search_id":21,"tile":"10/516/162"},"geometry":{"type":"Point","coordinates":[85.3112952,27.7149352]}},
{"type":"Feature","properties":{"osm_ref":4003516,"kind":"PARK","flags":1,"importance":130,"ele_dm":0,"name":"Sapana Bagaincha (sample)","name_en":"Sapana Bagaincha (sample)","name_ne":"सपना बगैंचा","search_id":22,"tile":"10/516/162"},"geometry":{"type":"Point","coordinates":[85.3112958,27.7149803]}},
{"type":"Feature","properties":{"osm_ref":4003532,"kind":"TAXI_STAND","flags":0,"importance":10,"ele_dm":0,"search_id":26,"tile":"10/516/162"},"geometry":{"type":"Point","coordinates":[85.3093813,27.7160365]}},
{"type":"Feature","properties":{"osm_ref":4003540,"kind":"PARKING","flags":0,"importance":5,"ele_dm":0,"search_id":28,"tile":"10/516/162"},"geometry":{"type":"Point","coordinates":[85.3122182,27.7157839]}},
{"type":"Feature","properties":{"osm_ref":4003552,"kind":"HOTEL","flags":0,"importance":30,"ele_dm":0,"name":"Hotel (sample)","name_en":"Hotel (sample)","name_ne":"","search_id":31,"tile":"10/516/162"},"geometry":{"type":"Point","coordinates":[85.3056736,27.7198174]}},
{"type":"Feature","properties":{"osm_ref":4003556,"kind":"GUEST_HOUSE","flags":0,"importance":20,"ele_dm":0,"name":"Guest house (sample)","name_en":"Guest house (sample)","name_ne":"","search_id":32,"tile":"10/516/162"},"geometry":{"type":"Point","coordinates":[85.3044286,27.7174823]}},
{"type":"Feature","properties":{"osm_ref":4003560,"kind":"HOSTEL","flags":0,"importance":15,"ele_dm":0,"name":"Hostel (sample)","name_en":"Hostel (sample)","name_ne":"","search_id":33,"tile":"10/516/162"},"geometry":{"type":"Point","coordinates":[85.3090171,27.7195151]}},
{"type":"Feature","properties":{"osm_ref":4003568,"kind":"RESTAURANT","flags":0,"importance":20,"ele_dm":0,"name":"Khaja Ghar","name_en":"Khaja Ghar","name_ne":"खाजा घर","search_id":35,"tile":"10/516/162"},"geometry":{"type":"Point","coordinates":[85.305336,27.7170225]}},
{"type":"Feature","properties":{"osm_ref":4003572,"kind":"CAFE","flags":0,"importance":20,"ele_dm":0,"name":"Chiya Pasal","name_en":"Chiya Pasal","name_ne":"चिया पसल","search_id":36,"tile":"10/516/162"},"geometry":{"type":"Point","coordinates":[85.3092027,27.7180691]}},
{"type":"Feature","properties":{"osm_ref":4003576,"kind":"SHOP","flags":0,"importance":5,"ele_dm":0,"search_id":37,"tile":"10/516/162"},"geometry":{"type":"Point","coordinates":[85.3075854,27.7185357]}},
{"type":"Feature","properties":{"osm_ref":4003580,"kind":"MARKETPLACE","flags":1,"importance":120,"ele_dm":0,"name":"Asan-style market (sample)","name_en":"Asan-style market (sample)","name_ne":"बजार","search_id":38,"tile":"10/516/162"},"geometry":{"type":"Point","coordinates":[85.3074824,27.7184013]}},
{"type":"Feature","properties":{"osm_ref":4003584,"kind":"INFORMATION","flags":0,"importance":30,"ele_dm":0,"name":"Tourist info","name_en":"Tourist info","name_ne":"","search_id":39,"tile":"10/516/162"},"geometry":{"type":"Point","coordinates":[85.308495,27.7182563]}},
{"type":"Feature","properties":{"osm_ref":4003588,"kind":"ATTRACTION","flags":1,"importance":90,"ele_dm":0,"name":"Kasthamandap-style pavilion (sample)","name_en":"Kasthamandap-style pavilion (sample)","name_ne":"मण्डप","search_id":40,"tile":"10/516/162"},"geometry":{"type":"Point","coordinates":[85.3070751,27.7182697]}},
{"type":"Feature","properties":{"osm_ref":4003608,"kind":"SCHOOL","flags":0,"importance":30,"ele_dm":0,"name":"Sample School","name_en":"Sample School","name_ne":"विद्यालय","search_id":45,"tile":"10/516/162"},"geometry":{"type":"Point","coordinates":[85.3073891,27.7190791]}},
{"type":"Feature","properties":{"osm_ref":4003612,"kind":"HOSPITAL","flags":0,"importance":60,"ele_dm":0,"name":"Swasthya Chauki (sample)","name_en":"Swasthya Chauki (sample)","name_ne":"स्वास्थ्य चौकी","search_id":46,"tile":"10/516/162"},"geometry":{"type":"Point","coordinates":[85.3122593,27.7192136]}},
{"type":"Feature","properties":{"osm_ref":4003616,"kind":"GOVERNMENT","flags":0,"importance":40,"ele_dm":0,"name":"Ward office (sample)","name_en":"Ward office (sample)","name_ne":"वडा कार्यालय","search_id":47,"tile":"10/516/162"},"geometry":{"type":"Point","coordinates":[85.3083224,27.7123006]}},
{"type":"Feature","properties":{"osm_ref":4003620,"kind":"BANK","flags":0,"importance":10,"ele_dm":0,"search_id":48,"tile":"10/516/162"},"geometry":{"type":"Point","coordinates":[85.3099898,27.7160307]}},
{"type":"Feature","properties":{"osm_ref":4003448,"kind":"GOMPA","flags":9,"importance":140,"ele_dm":0,"name":"Sample Gompa","name_en":"Sample Gompa","name_ne":"गुम्बा","search_id":5,"tile":"10/517/162"},"geometry":{"type":"Point","coordinates":[85.319955,27.7181475]}},
{"type":"Feature","properties":{"osm_ref":4003452,"kind":"CHORTEN","flags":9,"importance":20,"ele_dm":0,"search_id":6,"tile":"10/517/162"},"geometry":{"type":"Point","coordinates":[85.3202549,27.7177836]}},
{"type":"Feature","properties":{"osm_ref":4003456,"kind":"MANI_WALL","flags":9,"importance":20,"ele_dm":0,"name":"Mani wall (sample)","name_en":"Mani wall (sample)","name_ne":"","search_id":7,"tile":"10/517/162"},"geometry":{"type":"Point","coordinates":[85.3199483,27.7175879]}},
{"type":"Feature","properties":{"osm_ref":4003460,"kind":"MOSQUE","flags":9,"importance":40,"ele_dm":0,"name":"Test mosque","name_en":"Test mosque","name_ne":"","search_id":8,"tile":"10/517/162"},"geometry":{"type":"Point","coordinates":[85.3146249,27.7185593]}},
{"type":"Feature","properties":{"osm_ref":4003464,"kind":"CHURCH","flags":9,"importance":40,"ele_dm":0,"name":"Test church","name_en":"Test church","name_ne":"","search_id":9,"tile":"10/517/162"},"geometry":{"type":"Point","coordinates":[85.3148885,27.7185568]}},
{"type":"Feature","properties":{"osm_ref":4003496,"kind":"RUINS","flags":1,"importance":15,"ele_dm":0,"name":"Old wall ruins","name_en":"Old wall ruins","name_ne":"","search_id":17,"tile":"10/517/162"},"geometry":{"type":"Point","coordinates":[85.3142075,27.7125156]}},
{"type":"Feature","properties":{"osm_ref":4003500,"kind":"VIEWPOINT","flags":5,"importance":160,"ele_dm":13840,"name":"Danda viewpoint","name_en":"Danda viewpoint","name_ne":"डाँडा","search_id":18,"tile":"10/517/162"},"geometry":{"type":"Point","coordinates":[85.3195483,27.7180611]}},
{"type":"Feature","properties":{"osm_ref":4003504,"kind":"PEAK","flags":5,"importance":120,"ele_dm":13860,"name":"Sano Danda (sample)","name_en":"Sano Danda (sample)","name_ne":"सानो डाँडा","search_id":19,"tile":"10/517/162"},"geometry":{"type":"Point","coordinates":[85.3195993,27.7180877]}},
{"type":"Feature","properties":{"osm_ref":4003508,"kind":"SPRING","flags":1,"importance":30,"ele_dm":0,"name":"Mul (spring)","name_en":"Mul (spring)","name_ne":"मूल","search_id":20,"tile":"10/517/162"},"geometry":{"type":"Point","coordinates":[85.3183161,27.7168092]}},
{"type":"Feature","properties":{"osm_ref":4003520,"kind":"LAKE","flags":1,"importance":100,"ele_dm":0,"name":"Pokhari (sample)","name_en":"Pokhari (sample)","name_ne":"पोखरी","search_id":23,"tile":"10/517/162"},"geometry":{"type":"Point","coordinates":[85.3145313,27.7141373]}},
{"type":"Feature","properties":{"osm_ref":4003524,"kind":"WATERFALL","flags":1,"importance":15,"ele_dm":0,"name":"Kulo jharna (test)","name_en":"Kulo jharna (test)","name_ne":"","search_id":24,"tile":"10/517/162"},"geometry":{"type":"Point","coordinates":[85.3149853,27.7164798]}},
{"type":"Feature","properties":{"osm_ref":4003528,"kind":"BUS_STATION","flags":1,"importance":140,"ele_dm":0,"name":"Bus park (sample)","name_en":"Bus park (sample)","name_ne":"बसपार्क","search_id":25,"tile":"10/517/162"},"geometry":{"type":"Point","coordinates":[85.32134,27.7152458]}},
{"type":"Feature","properties":{"osm_ref":4003536,"kind":"FUEL","flags":0,"importance":15,"ele_dm":0,"search_id":27,"tile":"10/517/162"},"geometry":{"type":"Point","coordinates":[85.3215751,27.7137091]}},
{"type":"Feature","properties":{"osm_ref":4003544,"kind":"BRIDGE","flags":1,"importance":30,"ele_dm":0,"name":"Kath Pul","name_en":"Kath Pul","name_ne":"काठ पुल","search_id":29,"tile":"10/517/162"},"geometry":{"type":"Point","coordinates":[85.3149783,27.7175811]}},
{"type":"Feature","properties":{"osm_ref":4003548,"kind":"HELIPAD","flags":1,"importance":30,"ele_dm":0,"name":"Helipad (test)","name_en":"Helipad (test)","name_ne":"","search_id":30,"tile":"10/517/162"},"geometry":{"type":"Point","coordinates":[85.322653,27.714782]}},
{"type":"Feature","properties":{"osm_ref":4003564,"kind":"TEAHOUSE","flags":1,"importance":60,"ele_dm":0,"name":"Bhatti (sample)","name_en":"Bhatti (sample)","name_ne":"भट्टी","search_id":34,"tile":"10/517/162"},"geometry":{"type":"Point","coordinates":[85.3192506,27.7186055]}},
{"type":"Feature","properties":{"osm_ref":4003592,"kind":"PICNIC_SITE","flags":1,"importance":40,"ele_dm":0,"name":"Picnic spot","name_en":"Picnic spot","name_ne":"वनभोज स्थल","search_id":41,"tile":"10/517/162"},"geometry":{"type":"Point","coordinates":[85.3206769,27.7191335]}},
{"type":"Feature","properties":{"osm_ref":4003596,"kind":"PARAGLIDING","flags":1,"importance":50,"ele_dm":0,"name":"Paragliding launch (test)","name_en":"Paragliding launch (test)","name_ne":"","search_id":42,"tile":"10/517/162"},"geometry":{"type":"Point","coordinates":[85.3194501,27.7183328]}},
{"type":"Feature","properties":{"osm_ref":4003600,"kind":"ZIPLINE","flags":1,"importance":40,"ele_dm":0,"name":"Zipline (test)","name_en":"Zipline (test)","name_ne":"","search_id":43,"tile":"10/517/162"},"geometry":{"type":"Point","coordinates":[85.3221568,27.7156894]}},
{"type":"Feature","properties":{"osm_ref":4003604,"kind":"BUNGEE","flags":1,"importance":40,"ele_dm":0,"name":"Bungee (test)","name_en":"Bungee (test)","name_ne":"","search_id":44,"tile":"10/517/162"},"geometry":{"type":"Point","coordinates":[85.3149908,27.7169311]}}
]}
