{"type":"FeatureCollection","name":"roads","features":[
{"type":"Feature","properties":{"osm_way_id":1000002,"road_class":"PRIMARY","surface":"ASPHALT","surface_group":"PAVED","surface_source":"TAGGED","flags":0,"lanes":4,"sac_scale":"UNKNOWN","trail_visibility":0,"layer":0,"width_cm":1400,"access":127,"name":"Madhya Marg","name_en":"Madhya Marg","name_ne":"मध्य मार्ग","ref":"H-S1","tile":"10/516/162"},"geometry":{"type":"LineString","coordinates":[[85.3022798,27.7158963],[85.3093808,27.7159913],[85.3126653,27.7158558]]}},
{"type":"Feature","properties":{"osm_way_id":1000004,"road_class":"SECONDARY","surface":"CONCRETE","surface_group":"PAVED","surface_source":"INFERRED","flags":0,"lanes":2,"sac_scale":"UNKNOWN","trail_visibility":0,"layer":0,"width_cm":0,"access":127,"name":"Uttar Marg","name_en":"Uttar Marg","name_ne":"उत्तर मार्ग","ref":"","tile":"10/516/162"},"geometry":{"type":"LineString","coordinates":[[85.3124494,27.7110881],[85.3126204,27.7121046]]}},
{"type":"Feature","properties":{"osm_way_id":1000004,"road_class":"SECONDARY","surface":"CONCRETE","surface_group":"PAVED","surface_source":"INFERRED","flags":0,"lanes":2,"sac_scale":"UNKNOWN","trail_visibility":0,"layer":0,"width_cm":0,"access":127,"name":"Uttar Marg","name_en":"Uttar Marg","name_ne":"उत्तर मार्ग","ref":"","tile":"10/516/162"},"geometry":{"type":"LineString","coordinates":[[85.3126781,27.7169229],[85.3126433,27.7174047],[85.312686,27.7175848]]}},
{"type":"Feature","properties":{"osm_way_id":1000005,"road_class":"TERTIARY","surface":"BRICK","surface_group":"PAVED","surface_source":"TAGGED","flags":0,"lanes":0,"sac_scale":"UNKNOWN","trail_visibility":0,"layer":0,"width_cm":0,"access":127,"name":"Purano Sadak","name_en":"Purano Sadak","name_ne":"पुरानो सडक","ref":"","tile":"10/516/162"},"geometry":{"type":"LineString","coordinates":[[85.303576,27.7111719],[85.3052876,27.7129611],[85.3065239,27.7145741],[85.3071561,27.716554],[85.3084054,27.71925],[85.3087331,27.7203662]]}},
{"type":"Feature","properties":{"osm_way_id":1000006,"road_class":"RESIDENTIAL","surface":"ASPHALT","surface_group":"PAVED","surface_source":"INFERRED","flags":0,"lanes":0,"sac_scale":"UNKNOWN","trail_visibility":0,"layer":0,"width_cm":0,"access":127,"name":"Gali 1","name_en":"Gali 1","name_ne":"","ref":"","tile":"10/516/162"},"geometry":{"type":"LineString","coordinates":[[85.303786,27.7162836],[85.3038947,27.7174886],[85.3038168,27.7189434],[85.3038801,27.7201762]]}},
{"type":"Feature","properties":{"osm_way_id":1000007,"road_class":"RESIDENTIAL","surface":"BRICK","surface_group":"PAVED","surface_source":"INFERRED","flags":0,"lanes":0,"sac_scale":"UNKNOWN","trail_visibility":0,"layer":0,"width_cm":0,"access":127,"ref":"","tile":"10/516/162"},"geometry":{"type":"LineString","coordinates":[[85.305016,27.7162506],[85.3051007,27.7174624],[85.3049942,27.7189157],[85.3051013,27.7201915]]}},
{"type":"Feature","properties":{"osm_way_id":1000008,"road_class":"RESIDENTIAL","surface":"COBBLE","surface_group":"PAVED","surface_source":"DEFAULT","flags":0,"lanes":0,"sac_scale":"UNKNOWN","trail_visibility":0,"layer":0,"width_cm":0,"access":127,"name":"Gali 3","name_en":"Gali 3","name_ne":"","ref":"","tile":"10/516/162"},"geometry":{"type":"LineString","coordinates":[[85.3062596,27.7162274],[85.3063307,27.7174573],[85.3062039,27.7188978],[85.3063512,27.7201967]]}},
{"type":"Feature","properties":{"osm_way_id":1000009,"road_class":"RESIDENTIAL","surface":"CONCRETE","surface_group":"PAVED","surface_source":"TAGGED","flags":0,"lanes":0,"sac_scale":"UNKNOWN","trail_visibility":0,"layer":0,"width_cm":0,"access":127,"ref":"","tile":"10/516/162"},"geometry":{"type":"LineString","coordinates":[[85.3086654,27.7162105],[85.3087559,27.7174467],[85.3086752,27.7188605],[85.3087417,27.7201405]]}},
{"type":"Feature","properties":{"osm_way_id":1000010,"road_class":"RESIDENTIAL","surface":"GRAVEL","surface_group":"GRAVEL","surface_source":"INFERRED","flags":0,"lanes":0,"sac_scale":"UNKNOWN","trail_visibility":0,"layer":0,"width_cm":0,"access":127,"name":"Gali 5","name_en":"Gali 5","name_ne":"","ref":"","tile":"10/516/162"},"geometry":{"type":"LineString","coordinates":[[85.3098714,27.716201],[85.310005,27.7174492],[85.3098583,27.7188553],[85.3100165,27.7201614]]}},
{"type":"Feature","properties":{"osm_way_id":1000011,"road_class":"RESIDENTIAL","surface":"COMPACTED","surface_group":"GRAVEL","surface_source":"DERIVED","flags":0,"lanes":0,"sac_scale":"UNKNOWN","trail_visibility":0,"layer":0,"width_cm":0,"access":127,"ref":"","tile":"10/516/162"},"geometry":{"type":"LineString","coordinates":[[85.3111042,27.7162036],[85.3112307,27.7174347],[85.3111115,27.7188476],[85.3112355,27.7201366]]}},
{"type":"Feature","properties":{"osm_way_id":1000012,"road_class":"RESIDENTIAL","surface":"DIRT","surface_group":"DIRT","surface_source":"DEFAULT","flags":0,"lanes":0,"sac_scale":"UNKNOWN","trail_visibility":0,"layer":0,"width_cm":0,"access":127,"name":"Tole Marg 6","name_en":"Tole Marg 6","name_ne":"","ref":"","tile":"10/516/162"},"geometry":{"type":"LineString","coordinates":[[85.3035353,27.7169536],[85.3063695,27.7169871],[85.309391,27.7168398],[85.311495,27.716898]]}},
{"type":"Feature","properties":{"osm_way_id":1000013,"road_class":"RESIDENTIAL","surface":"MUD","surface_group":"MUD","surface_source":"INFERRED","flags":0,"lanes":0,"sac_scale":"UNKNOWN","trail_visibility":0,"layer":0,"width_cm":0,"access":127,"ref":"","tile":"10/516/162"},"geometry":{"type":"LineString","coordinates":[[85.3035248,27.7180339],[85.3063778,27.718054],[85.3093859,27.7179219],[85.3115095,27.7179598]]}},
{"type":"Feature","properties":{"osm_way_id":1000014,"road_class":"RESIDENTIAL","surface":"SAND","surface_group":"DIRT","surface_source":"INFERRED","flags":0,"lanes":0,"sac_scale":"UNKNOWN","trail_visibility":0,"layer":0,"width_cm":0,"access":127,"ref":"","tile":"10/516/162"},"geometry":{"type":"LineString","coordinates":[[85.3035085,27.7191241],[85.3063762,27.7191316],[85.3094354,27.7190272],[85.3114669,27.7190484]]}},
{"type":"Feature","properties":{"osm_way_id":1000015,"road_class":"RESIDENTIAL","surface":"BRICK","surface_group":"PAVED","surface_source":"INFERRED","flags":0,"lanes":0,"sac_scale":"UNKNOWN","trail_visibility":0,"layer":0,"width_cm":0,"access":127,"ref":"","tile":"10/516/162"},"geometry":{"type":"LineString","coordinates":[[85.3034608,27.7122475],[85.3044782,27.7126229],[85.3048806,27.7138599],[85.3043058,27.7149439]]}},
{"type":"Feature","properties":{"osm_way_id":1000016,"road_class":"LIVING_STREET","surface":"COBBLE","surface_group":"PAVED","surface_source":"TAGGED","flags":0,"lanes":0,"sac_scale":"UNKNOWN","trail_visibility":0,"layer":0,"width_cm":0,"access":127,"name":"Hiti Gali","name_en":"Hiti Gali","name_ne":"हिटी गल्ली","ref":"","tile":"10/516/162"},"geometry":{"type":"LineString","coordinates":[[85.3036583,27.7138636],[85.3052895,27.7141336],[85.3061275,27.7154054]]}},
{"type":"Feature","properties":{"osm_way_id":1000017,"road_class":"SERVICE","surface":"CONCRETE","surface_group":"PAVED","surface_source":"INFERRED","flags":0,"lanes":0,"sac_scale":"UNKNOWN","trail_visibility":0,"layer":0,"width_cm":0,"access":127,"ref":"","tile":"10/516/162"},"geometry":{"type":"LineString","coordinates":[[85.3075101,27.712218],[85.3087292,27.712387],[85.3093473,27.7131935]]}},
{"type":"Feature","properties":{"osm_way_id":1000018,"road_class":"RESIDENTIAL","surface":"ASPHALT","surface_group":"PAVED","surface_source":"INFERRED","flags":1,"lanes":0,"sac_scale":"UNKNOWN","trail_visibility":0,"layer":0,"width_cm":0,"access":127,"name":"Ekmarga Gali","name_en":"Ekmarga Gali","name_ne":"","ref":"","tile":"10/516/162"},"geometry":{"type":"LineString","coordinates":[[85.3079351,27.7138387],[85.3099655,27.714],[85.3119949,27.7140711]]}},
{"type":"Feature","properties":{"osm_way_id":1000002,"road_class":"PRIMARY","surface":"ASPHALT","surface_group":"PAVED","surface_source":"TAGGED","flags":0,"lanes":4,"sac_scale":"UNKNOWN","trail_visibility":0,"layer":0,"width_cm":1400,"access":127,"name":"Madhya Marg","name_en":"Madhya Marg","name_ne":"मध्य मार्ग","ref":"H-S1","tile":"10/517/162"},"geometry":{"type":"LineString","coordinates":[[85.3126653,27.7158558],[85.3164771,27.7156984],[85.3230471,27.7155014]]}},
{"type":"Feature","properties":{"osm_way_id":1000003,"road_class":"TRUNK","surface":"ASPHALT","surface_group":"PAVED","surface_source":"TAGGED","flags":0,"lanes":4,"sac_scale":"UNKNOWN","trail_visibility":0,"layer":0,"width_cm":1800,"access":127,"name":"Chakra Path (sample ring)","name_en":"Chakra Path (sample ring)","name_ne":"चक्र पथ","ref":"NH-S2","tile":"10/517/162"},"geometry":{"type":"LineString","coordinates":[[85.3214653,27.7110023],[85.3213324,27.7146141],[85.3218072,27.720242]]}},
{"type":"Feature","properties":{"osm_way_id":1000004,"road_class":"SECONDARY","surface":"CONCRETE","surface_group":"PAVED","surface_source":"INFERRED","flags":0,"lanes":2,"sac_scale":"UNKNOWN","trail_visibility":0,"layer":0,"width_cm":0,"access":127,"name":"Uttar Marg","name_en":"Uttar Marg","name_ne":"उत्तर मार्ग","ref":"","tile":"10/517/162"},"geometry":{"type":"LineString","coordinates":[[85.3126204,27.7121046],[85.3129043,27.7137917],[85.3126781,27.7169229]]}},
{"type":"Feature","properties":{"osm_way_id":1000004,"road_class":"SECONDARY","surface":"CONCRETE","surface_group":"PAVED","surface_source":"INFERRED","flags":0,"lanes":2,"sac_scale":"UNKNOWN","trail_visibility":0,"layer":0,"width_cm":0,"access":127,"name":"Uttar Marg","name_en":"Uttar Marg","name_ne":"उत्तर मार्ग","ref":"","tile":"10/517/162"},"geometry":{"type":"LineString","coordinates":[[85.312686,27.7175848],[85.3133355,27.7203226]]}},
{"type":"Feature","properties":{"osm_way_id":1000019,"road_class":"PRIMARY","surface":"ASPHALT","surface_group":"PAVED","surface_source":"TAGGED","flags":33,"lanes":0,"sac_scale":"UNKNOWN","trail_visibility":0,"layer":0,"width_cm":0,"access":127,"ref":"","tile":"10/517/162"},"geometry":{"type":"LineString","coordinates":[[85.3164771,27.7156984],[85.3170796,27.7151962],[85.3180905,27.7149158]]}},
{"type":"Feature","properties":{"osm_way_id":1000020,"road_class":"TRACK","surface":"DIRT","surface_group":"DIRT","surface_source":"DEFAULT","flags":0,"lanes":0,"sac_scale":"UNKNOWN","trail_visibility":0,"layer":0,"width_cm":0,"access":127,"ref":"","tile":"10/517/162"},"geometry":{"type":"LineString","coordinates":[[85.3133919,27.7121623],[85.3154245,27.712504],[85.3174484,27.7121237],[85.3194831,27.7126459]]}},
{"type":"Feature","properties":{"osm_way_id":1000021,"road_class":"TRACK","surface":"GRAVEL","surface_group":"GRAVEL","surface_source":"DERIVED","flags":0,"lanes":0,"sac_scale":"UNKNOWN","trail_visibility":0,"layer":0,"width_cm":0,"access":127,"ref":"","tile":"10/517/162"},"geometry":{"type":"LineString","coordinates":[[85.3154245,27.712504],[85.3159467,27.7137628],[85.3157569,27.7148477]]}},
{"type":"Feature","properties":{"osm_way_id":1000022,"road_class":"UNCLASSIFIED","surface":"ROCK","surface_group":"GRAVEL","surface_source":"INFERRED","flags":0,"lanes":0,"sac_scale":"UNKNOWN","trail_visibility":0,"layer":0,"width_cm":0,"access":127,"ref":"","tile":"10/517/162"},"geometry":{"type":"LineString","coordinates":[[85.3180905,27.7149158],[85.3185102,27.7160852],[85.3183204,27.7171702]]}},
{"type":"Feature","properties":{"osm_way_id":1000023,"road_class":"SERVICE","surface":"CONCRETE","surface_group":"PAVED","surface_source":"INFERRED","flags":0,"lanes":0,"sac_scale":"UNKNOWN","trail_visibility":0,"layer":0,"width_cm":0,"access":127,"ref":"","tile":"10/517/162"},"geometry":{"type":"LineString","coordinates":[[85.3220314,27.7137048],[85.3229463,27.7138766]]}},
{"type":"Feature","properties":{"osm_way_id":1000024,"road_class":"ROAD","surface":"ASPHALT","surface_group":"PAVED","surface_source":"DEFAULT","flags":0,"lanes":0,"sac_scale":"UNKNOWN","trail_visibility":0,"layer":0,"width_cm":0,"access":127,"ref":"","tile":"10/517/162"},"geometry":{"type":"LineString","coordinates":[[85.3134763,27.719202],[85.3155111,27.7197243],[85.3175373,27.7195245]]}},
{"type":"Feature","properties":{"osm_way_id":1000025,"road_class":"RESIDENTIAL","surface":"ASPHALT","surface_group":"PAVED","surface_source":"INFERRED","flags":0,"lanes":0,"sac_scale":"UNKNOWN","trail_visibility":0,"layer":0,"width_cm":0,"access":127,"ref":"","tile":"10/517/162"},"geometry":{"type":"LineString","coordinates":[[85.3134546,27.717397],[85.3146738,27.7175659]]}},
{"type":"Feature","properties":{"osm_way_id":1000026,"road_class":"RESIDENTIAL","surface":"WOOD","surface_group":"PAVED","surface_source":"TAGGED","flags":2,"lanes":0,"sac_scale":"UNKNOWN","trail_visibility":0,"layer":1,"width_cm":0,"access":127,"name":"Kath Pul","name_en":"Kath Pul","name_ne":"काठ पुल","ref":"","tile":"10/517/162"},"geometry":{"type":"LineString","coordinates":[[85.3146738,27.7175659],[85.3152825,27.7175782]]}},
{"type":"Feature","properties":{"osm_way_id":1000027,"road_class":"RESIDENTIAL","surface":"ASPHALT","surface_group":"PAVED","surface_source":"INFERRED","flags":0,"lanes":0,"sac_scale":"UNKNOWN","trail_visibility":0,"layer":0,"width_cm":0,"access":127,"ref":"","tile":"10/517/162"},"geometry":{"type":"LineString","coordinates":[[85.3152825,27.7175782],[85.3167065,27.7179076]]}},
{"type":"Feature","properties":{"osm_way_id":1000028,"road_class":"UNCLASSIFIED","surface":"SNOW_ICE","surface_group":"MUD","surface_source":"DEFAULT","flags":0,"lanes":0,"sac_scale":"UNKNOWN","trail_visibility":0,"layer":0,"width_cm":0,"access":127,"name":"Test lane (snow)","name_en":"Test lane (snow)","name_ne":"","ref":"","tile":"10/517/162"},"geometry":{"type":"LineString","coordinates":[[85.3139942,27.7200997],[85.3165307,27.7201659],[85.3185585,27.7201014]]}},
{"type":"Feature","properties":{"osm_way_id":1000029,"road_class":"TRACK","surface":"MUD","surface_group":"MUD","surface_source":"INFERRED","flags":64,"lanes":0,"sac_scale":"UNKNOWN","trail_visibility":0,"layer":0,"width_cm":0,"access":127,"ref":"","tile":"10/517/162"},"geometry":{"type":"LineString","coordinates":[[85.314214,27.7130571],[85.3148203,27.7128708],[85.3153306,27.7131368]]}},
{"type":"Feature","properties":{"osm_way_id":1000030,"road_class":"TERTIARY","surface":"ASPHALT","surface_group":"PAVED","surface_source":"DERIVED","flags":0,"lanes":0,"sac_scale":"UNKNOWN","trail_visibility":0,"layer":0,"width_cm":0,"access":127,"ref":"","tile":"10/517/162"},"geometry":{"type":"LineString","coordinates":[[85.3218149,27.7167758],[85.3230643,27.7169283]]}}
]}
