{"type":"FeatureCollection","name":"roads","features":[
{"type":"Feature","properties":{"osm_way_id":1000002,"road_class":"PRIMARY","surface":"ASPHALT","surface_group":"PAVED","surface_source":"TAGGED","flags":24,"lanes":4,"sac_scale":"UNKNOWN","trail_visibility":0,"layer":0,"width_cm":1400,"access":127,"name":"Madhya Marg","name_en":"Madhya Marg","name_ne":"मध्य मार्ग","ref":"H-S1","tile":"10/516/162"},"geometry":{"type":"LineString","coordinates":[[85.3014682,27.7158855],[85.3022798,27.7158963],[85.3093808,27.7159913],[85.3126653,27.7158558],[85.3164771,27.7156984]]}},
{"type":"Feature","properties":{"osm_way_id":1000004,"road_class":"SECONDARY","surface":"CONCRETE","surface_group":"PAVED","surface_source":"INFERRED","flags":24,"lanes":2,"sac_scale":"UNKNOWN","trail_visibility":0,"layer":0,"width_cm":0,"access":127,"name":"Uttar Marg","name_en":"Uttar Marg","name_ne":"उत्तर मार्ग","ref":"","tile":"10/516/162"},"geometry":{"type":"LineString","coordinates":[[85.3123584,27.7105474],[85.3124494,27.7110881],[85.3126204,27.7121046],[85.3129043,27.7137917]]}},
{"type":"Feature","properties":{"osm_way_id":1000004,"road_class":"SECONDARY","surface":"CONCRETE","surface_group":"PAVED","surface_source":"INFERRED","flags":24,"lanes":2,"sac_scale":"UNKNOWN","trail_visibility":0,"layer":0,"width_cm":0,"access":127,"name":"Uttar Marg","name_en":"Uttar Marg","name_ne":"उत्तर मार्ग","ref":"","tile":"10/516/162"},"geometry":{"type":"LineString","coordinates":[[85.3129043,27.7137917],[85.3126781,27.7169229],[85.3126433,27.7174047],[85.312686,27.7175848],[85.3134979,27.7210071]]}},
{"type":"Feature","properties":{"osm_way_id":1000005,"road_class":"TERTIARY","surface":"BRICK","surface_group":"PAVED","surface_source":"TAGGED","flags":24,"lanes":0,"sac_scale":"UNKNOWN","trail_visibility":0,"layer":0,"width_cm":0,"access":127,"name":"Purano Sadak","name_en":"Purano Sadak","name_ne":"पुरानो सडक","ref":"","tile":"10/516/162"},"geometry":{"type":"LineString","coordinates":[[85.3032336,27.7108141],[85.303576,27.7111719],[85.3052876,27.7129611],[85.3065239,27.7145741],[85.3071561,27.716554],[85.3084054,27.71925],[85.3087331,27.7203662],[85.308934,27.7210503]]}},
{"type":"Feature","properties":{"osm_way_id":1000006,"road_class":"RESIDENTIAL","surface":"ASPHALT","surface_group":"PAVED","surface_source":"INFERRED","flags":0,"lanes":0,"sac_scale":"UNKNOWN","trail_visibility":0,"layer":0,"width_cm":0,"access":127,"name":"Gali 1","name_en":"Gali 1","name_ne":"","ref":"","tile":"10/516/162"},"geometry":{"type":"LineString","coordinates":[[85.303786,27.7162836],[85.3038947,27.7174886],[85.3038168,27.7189434],[85.3038801,27.7201762]]}},
{"type":"Feature","properties":{"osm_way_id":1000007,"road_class":"RESIDENTIAL","surface":"BRICK","surface_group":"PAVED","surface_source":"INFERRED","flags":0,"lanes":0,"sac_scale":"UNKNOWN","trail_visibility":0,"layer":0,"width_cm":0,"access":127,"ref":"","tile":"10/516/162"},"geometry":{"type":"LineString","coordinates":[[85.305016,27.7162506],[85.3051007,27.7174624],[85.3049942,27.7189157],[85.3051013,27.7201915]]}},
{"type":"Feature","properties":{"osm_way_id":1000008,"road_class":"RESIDENTIAL","surface":"COBBLE","surface_group":"PAVED","surface_source":"DEFAULT","flags":0,"lanes":0,"sac_scale":"UNKNOWN","trail_visibility":0,"layer":0,"width_cm":0,"access":127,"name":"Gali 3","name_en":"Gali 3","name_ne":"","ref":"","tile":"10/516/162"},"geometry":{"type":"LineString","coordinates":[[85.3062596,27.7162274],[85.3063307,27.7174573],[85.3062039,27.7188978],[85.3063512,27.7201967]]}},
{"type":"Feature","properties":{"osm_way_id":1000009,"road_class":"RESIDENTIAL","surface":"CONCRETE","surface_group":"PAVED","surface_source":"TAGGED","flags":0,"lanes":0,"sac_scale":"UNKNOWN","trail_visibility":0,"layer":0,"width_cm":0,"access":127,"ref":"","tile":"10/516/162"},"geometry":{"type":"LineString","coordinates":[[85.3086654,27.7162105],[85.3087559,27.7174467],[85.3086752,27.7188605],[85.3087417,27.7201405]]}},
{"type":"Feature","properties":{"osm_way_id":1000010,"road_class":"RESIDENTIAL","surface":"GRAVEL","surface_group":"GRAVEL","surface_source":"INFERRED","flags":0,"lanes":0,"sac_scale":"UNKNOWN","trail_visibility":0,"layer":0,"width_cm":0,"access":127,"name":"Gali 5","name_en":"Gali 5","name_ne":"","ref":"","tile":"10/516/162"},"geometry":{"type":"LineString","coordinates":[[85.3098714,27.716201],[85.310005,27.7174492],[85.3098583,27.7188553],[85.3100165,27.7201614]]}},
{"type":"Feature","properties":{"osm_way_id":1000011,"road_class":"RESIDENTIAL","surface":"COMPACTED","surface_group":"GRAVEL","surface_source":"DERIVED","flags":0,"lanes":0,"sac_scale":"UNKNOWN","trail_visibility":0,"layer":0,"width_cm":0,"access":127,"ref":"","tile":"10/516/162"},"geometry":{"type":"LineString","coordinates":[[85.3111042,27.7162036],[85.3112307,27.7174347],[85.3111115,27.7188476],[85.3112355,27.7201366]]}},
{"type":"Feature","properties":{"osm_way_id":1000012,"road_class":"RESIDENTIAL","surface":"DIRT","surface_group":"DIRT","surface_source":"DEFAULT","flags":0,"lanes":0,"sac_scale":"UNKNOWN","trail_visibility":0,"layer":0,"width_cm":0,"access":127,"name":"Tole Marg 6","name_en":"Tole Marg 6","name_ne":"","ref":"","tile":"10/516/162"},"geometry":{"type":"LineString","coordinates":[[85.3035353,27.7169536],[85.3063695,27.7169871],[85.309391,27.7168398],[85.311495,27.716898]]}},
{"type":"Feature","properties":{"osm_way_id":1000013,"road_class":"RESIDENTIAL","surface":"MUD","surface_group":"MUD","surface_source":"INFERRED","flags":0,"lanes":0,"sac_scale":"UNKNOWN","trail_visibility":0,"layer":0,"width_cm":0,"access":127,"ref":"","tile":"10/516/162"},"geometry":{"type":"LineString","coordinates":[[85.3035248,27.7180339],[85.3063778,27.718054],[85.3093859,27.7179219],[85.3115095,27.7179598]]}},
{"type":"Feature","properties":{"osm_way_id":1000014,"road_class":"RESIDENTIAL","surface":"SAND","surface_group":"DIRT","surface_source":"INFERRED","flags":0,"lanes":0,"sac_scale":"UNKNOWN","trail_visibility":0,"layer":0,"width_cm":0,"access":127,"ref":"","tile":"10/516/162"},"geometry":{"type":"LineString","coordinates":[[85.3035085,27.7191241],[85.3063762,27.7191316],[85.3094354,27.7190272],[85.3114669,27.7190484]]}},
{"type":"Feature","properties":{"osm_way_id":1000015,"road_class":"RESIDENTIAL","surface":"BRICK","surface_group":"PAVED","surface_source":"INFERRED","flags":0,"lanes":0,"sac_scale":"UNKNOWN","trail_visibility":0,"layer":0,"width_cm":0,"access":127,"ref":"","tile":"10/516/162"},"geometry":{"type":"LineString","coordinates":[[85.3034608,27.7122475],[85.3044782,27.7126229],[85.3048806,27.7138599],[85.3043058,27.7149439]]}},
{"type":"Feature","properties":{"osm_way_id":1000016,"road_class":"LIVING_STREET","surface":"COBBLE","surface_group":"PAVED","surface_source":"TAGGED","flags":0,"lanes":0,"sac_scale":"UNKNOWN","trail_visibility":0,"layer":0,"width_cm":0,"access":127,"name":"Hiti Gali","name_en":"Hiti Gali","name_ne":"हिटी गल्ली","ref":"","tile":"10/516/162"},"geometry":{"type":"LineString","coordinates":[[85.3036583,27.7138636],[85.3052895,27.7141336],[85.3061275,27.7154054]]}},
{"type":"Feature","properties":{"osm_way_id":1000017,"road_class":"SERVICE","surface":"CONCRETE","surface_group":"PAVED","surface_source":"INFERRED","flags":0,"lanes":0,"sac_scale":"UNKNOWN","trail_visibility":0,"layer":0,"width_cm":0,"access":127,"ref":"","tile":"10/516/162"},"geometry":{"type":"LineString","coordinates":[[85.3075101,27.712218],[85.3087292,27.712387],[85.3093473,27.7131935]]}},
{"type":"Feature","properties":{"osm_way_id":1000018,"road_class":"RESIDENTIAL","surface":"ASPHALT","surface_group":"PAVED","surface_source":"INFERRED","flags":1,"lanes":0,"sac_scale":"UNKNOWN","trail_visibility":0,"layer":0,"width_cm":0,"access":127,"name":"Ekmarga Gali","name_en":"Ekmarga Gali","name_ne":"","ref":"","tile":"10/516/162"},"geometry":{"type":"LineString","coordinates":[[85.3079351,27.7138387],[85.3099655,27.714],[85.3119949,27.7140711]]}},
{"type":"Feature","properties":{"osm_way_id":1000002,"road_class":"PRIMARY","surface":"ASPHALT","surface_group":"PAVED","surface_source":"TAGGED","flags":24,"lanes":4,"sac_scale":"UNKNOWN","trail_visibility":0,"layer":0,"width_cm":1400,"access":127,"name":"Madhya Marg","name_en":"Madhya Marg","name_ne":"मध्य मार्ग","ref":"H-S1","tile":"10/517/162"},"geometry":{"type":"LineString","coordinates":[[85.3093808,27.7159913],[85.3126653,27.7158558],[85.3164771,27.7156984],[85.3230471,27.7155014],[85.3239799,27.7154734]]}},
{"type":"Feature","properties":{"osm_way_id":1000003,"road_class":"TRUNK","surface":"ASPHALT","surface_group":"PAVED","surface_source":"TAGGED","flags":24,"lanes":4,"sac_scale":"UNKNOWN","trail_visibility":0,"layer":0,"width_cm":1800,"access":127,"name":"Chakra Path (sample ring)","name_en":"Chakra Path (sample ring)","name_ne":"चक्र पथ","ref":"NH-S2","tile":"10/517/162"},"geometry":{"type":"LineString","coordinates":[[85.3214852,27.7104605],[85.3214653,27.7110023],[85.3213324,27.7146141],[85.3218072,27.720242],[85.321865,27.7209274]]}},
{"type":"Feature","properties":{"osm_way_id":1000004,"road_class":"SECONDARY","surface":"CONCRETE","surface_group":"PAVED","surface_source":"INFERRED","flags":24,"lanes":2,"sac_scale":"UNKNOWN","trail_visibility":0,"layer":0,"width_cm":0,"access":127,"name":"Uttar Marg","name_en":"Uttar Marg","name_ne":"उत्तर मार्ग","ref":"","tile":"10/517/162"},"geometry":{"type":"LineString","coordinates":[[85.3123584,27.7105474],[85.3126204,27.7121046],[85.3129043,27.7137917],[85.3126781,27.7169229],[85.3126433,27.7174047]]}},
{"type":"Feature","properties":{"osm_way_id":1000004,"road_class":"SECONDARY","surface":"CONCRETE","surface_group":"PAVED","surface_source":"INFERRED","flags":24,"lanes":2,"sac_scale":"UNKNOWN","trail_visibility":0,"layer":0,"width_cm":0,"access":127,"name":"Uttar Marg","name_en":"Uttar Marg","name_ne":"उत्तर मार्ग","ref":"","tile":"10/517/162"},"geometry":{"type":"LineString","coordinates":[[85.3126433,27.7174047],[85.312686,27.7175848],[85.3133355,27.7203226],[85.3134979,27.7210071]]}},
{"type":"Feature","properties":{"osm_way_id":1000019,"road_class":"PRIMARY","surface":"ASPHALT","surface_group":"PAVED","surface_source":"TAGGED","flags":33,"lanes":0,"sac_scale":"UNKNOWN","trail_visibility":0,"layer":0,"width_cm":0,"access":127,"ref":"","tile":"10/517/162"},"geometry":{"type":"LineString","coordinates":[[85.3164771,27.7156984],[85.3170796,27.7151962],[85.3180905,27.7149158]]}},
{"type":"Feature","properties":{"osm_way_id":1000020,"road_class":"TRACK","surface":"DIRT","surface_group":"DIRT","surface_source":"DEFAULT","flags":0,"lanes":0,"sac_scale":"UNKNOWN","trail_visibility":0,"layer":0,"width_cm":0,"access":127,"ref":"","tile":"10/517/162"},"geometry":{"type":"LineString","coordinates":[[85.3133919,27.7121623],[85.3154245,27.712504],[85.3174484,27.7121237],[85.3194831,27.7126459]]}},
{"type":"Feature","properties":{"osm_way_id":1000021,"road_class":"TRACK","surface":"GRAVEL","surface_group":"GRAVEL","surface_source":"DERIVED","flags":0,"lanes":0,"sac_scale":"UNKNOWN","trail_visibility":0,"layer":0,"width_cm":0,"access":127,"ref":"","tile":"10/517/162"},"geometry":{"type":"LineString","coordinates":[[85.3154245,27.712504],[85.3159467,27.7137628],[85.3157569,27.7148477]]}},
{"type":"Feature","properties":{"osm_way_id":1000022,"road_class":"UNCLASSIFIED","surface":"ROCK","surface_group":"GRAVEL","surface_source":"INFERRED","flags":0,"lanes":0,"sac_scale":"UNKNOWN","trail_visibility":0,"layer":0,"width_cm":0,"access":127,"ref":"","tile":"10/517/162"},"geometry":{"type":"LineString","coordinates":[[85.3180905,27.7149158],[85.3185102,27.7160852],[85.3183204,27.7171702]]}},
{"type":"Feature","properties":{"osm_way_id":1000023,"road_class":"SERVICE","surface":"CONCRETE","surface_group":"PAVED","surface_source":"INFERRED","flags":0,"lanes":0,"sac_scale":"UNKNOWN","trail_visibility":0,"layer":0,"width_cm":0,"access":127,"ref":"","tile":"10/517/162"},"geometry":{"type":"LineString","coordinates":[[85.3220314,27.7137048],[85.3229463,27.7138766]]}},
{"type":"Feature","properties":{"osm_way_id":1000024,"road_class":"ROAD","surface":"ASPHALT","surface_group":"PAVED","surface_source":"DEFAULT","flags":0,"lanes":0,"sac_scale":"UNKNOWN","trail_visibility":0,"layer":0,"width_cm":0,"access":127,"ref":"","tile":"10/517/162"},"geometry":{"type":"LineString","coordinates":[[85.3134763,27.719202],[85.3155111,27.7197243],[85.3175373,27.7195245]]}},
{"type":"Feature","properties":{"osm_way_id":1000025,"road_class":"RESIDENTIAL","surface":"ASPHALT","surface_group":"PAVED","surface_source":"INFERRED","flags":0,"lanes":0,"sac_scale":"UNKNOWN","trail_visibility":0,"layer":0,"width_cm":0,"access":127,"ref":"","tile":"10/517/162"},"geometry":{"type":"LineString","coordinates":[[85.3134546,27.717397],[85.3146738,27.7175659]]}},
{"type":"Feature","properties":{"osm_way_id":1000026,"road_class":"RESIDENTIAL","surface":"WOOD","surface_group":"PAVED","surface_source":"TAGGED","flags":2,"lanes":0,"sac_scale":"UNKNOWN","trail_visibility":0,"layer":1,"width_cm":0,"access":127,"name":"Kath Pul","name_en":"Kath Pul","name_ne":"काठ पुल","ref":"","tile":"10/517/162"},"geometry":{"type":"LineString","coordinates":[[85.3146738,27.7175659],[85.3152825,27.7175782]]}},
{"type":"Feature","properties":{"osm_way_id":1000027,"road_class":"RESIDENTIAL","surface":"ASPHALT","surface_group":"PAVED","surface_source":"INFERRED","flags":0,"lanes":0,"sac_scale":"UNKNOWN","trail_visibility":0,"layer":0,"width_cm":0,"access":127,"ref":"","tile":"10/517/162"},"geometry":{"type":"LineString","coordinates":[[85.3152825,27.7175782],[85.3167065,27.7179076]]}},
{"type":"Feature","properties":{"osm_way_id":1000028,"road_class":"UNCLASSIFIED","surface":"SNOW_ICE","surface_group":"MUD","surface_source":"DEFAULT","flags":0,"lanes":0,"sac_scale":"UNKNOWN","trail_visibility":0,"layer":0,"width_cm":0,"access":127,"name":"Test lane (snow)","name_en":"Test lane (snow)","name_ne":"","ref":"","tile":"10/517/162"},"geometry":{"type":"LineString","coordinates":[[85.3139942,27.7200997],[85.3165307,27.7201659],[85.3185585,27.7201014]]}},
{"type":"Feature","properties":{"osm_way_id":1000029,"road_class":"TRACK","surface":"MUD","surface_group":"MUD","surface_source":"INFERRED","flags":64,"lanes":0,"sac_scale":"UNKNOWN","trail_visibility":0,"layer":0,"width_cm":0,"access":127,"ref":"","tile":"10/517/162"},"geometry":{"type":"LineString","coordinates":[[85.314214,27.7130571],[85.3148203,27.7128708],[85.3153306,27.7131368]]}},
{"type":"Feature","properties":{"osm_way_id":1000030,"road_class":"TERTIARY","surface":"ASPHALT","surface_group":"PAVED","surface_source":"DERIVED","flags":16,"lanes":0,"sac_scale":"UNKNOWN","trail_visibility":0,"layer":0,"width_cm":0,"access":127,"ref":"","tile":"10/517/162"},"geometry":{"type":"LineString","coordinates":[[85.3218149,27.7167758],[85.3230643,27.7169283],[85.3231862,27.7169432]]}},
{"type":"Feature","properties":{"osm_way_id":1000031,"road_class":"PEDESTRIAN","surface":"BRICK","surface_group":"PAVED","surface_source":"TAGGED","flags":0,"lanes":0,"sac_scale":"UNKNOWN","trail_visibility":0,"layer":0,"width_cm":0,"access":1,"name":"Pasal Gali","name_en":"Pasal Gali","name_ne":"पसल गल्ली","ref":"","tile":"10/516/162"},"geometry":{"type":"LineString","coordinates":[[85.3053827,27.7185356],[85.3068953,27.7184926],[85.3084151,27.718526]]}},
{"type":"Feature","properties":{"osm_way_id":1000032,"road_class":"FOOTWAY","surface":"BRICK","surface_group":"PAVED","surface_source":"INFERRED","flags":0,"lanes":0,"sac_scale":"UNKNOWN","trail_visibility":0,"layer":0,"width_cm":0,"access":1,"ref":"","tile":"10/516/162"},"geometry":{"type":"LineString","coordinates":[[85.3068626,27.7174594],[85.3070719,27.717999],[85.3068953,27.7184971]]}},
{"type":"Feature","properties":{"osm_way_id":1000033,"road_class":"FOOTWAY","surface":"CONCRETE","surface_group":"PAVED","surface_source":"INFERRED","flags":0,"lanes":0,"sac_scale":"UNKNOWN","trail_visibility":0,"layer":0,"width_cm":0,"access":1,"ref":"","tile":"10/516/162"},"geometry":{"type":"LineString","coordinates":[[85.3113939,27.7147086],[85.3120057,27.7149736]]}},
{"type":"Feature","properties":{"osm_way_id":1000034,"road_class":"PATH","surface":"DIRT","surface_group":"DIRT","surface_source":"DEFAULT","flags":0,"lanes":0,"sac_scale":"HIKING","trail_visibility":1,"layer":0,"width_cm":0,"access":67,"name":"Trail T1","name_en":"Trail T1","name_ne":"","ref":"","tile":"10/517/162"},"geometry":{"type":"LineString","coordinates":[[85.3219401,27.7188101],[85.3215493,27.7189397],[85.3211619,27.7189985],[85.3207912,27.7189896],[85.3204494,27.7189177],[85.3201478,27.7187891],[85.3198964,27.7186117]]}},
{"type":"Feature","properties":{"osm_way_id":1000035,"road_class":"PATH","surface":"GRASS","surface_group":"DIRT","surface_source":"INFERRED","flags":128,"lanes":0,"sac_scale":"MOUNTAIN_HIKING","trail_visibility":2,"layer":0,"width_cm":0,"access":67,"name":"Trail T2","name_en":"Trail T2","name_ne":"","ref":"","tile":"10/517/162"},"geometry":{"type":"LineString","coordinates":[[85.3205233,27.7201441],[85.3201535,27.7199723],[85.3198452,27.7197555],[85.3196046,27.7195044],[85.3194359,27.7192302],[85.3193415,27.7189447],[85.3193214,27.7186598]]}},
{"type":"Feature","properties":{"osm_way_id":1000036,"road_class":"PATH","surface":"ROCK","surface_group":"GRAVEL","surface_source":"INFERRED","flags":128,"lanes":0,"sac_scale":"DEMANDING_MOUNTAIN_HIKING","trail_visibility":3,"layer":0,"width_cm":0,"access":67,"name":"Trail T3","name_en":"Trail T3","name_ne":"","ref":"","tile":"10/517/162"},"geometry":{"type":"LineString","coordinates":[[85.3184612,27.7200997],[85.3183572,27.7197402],[85.318332,27.7193912],[85.3183807,27.719064],[85.3184968,27.7187691],[85.318672,27.7185156],[85.3188965,27.7183116]]}},
{"type":"Feature","properties":{"osm_way_id":1000037,"road_class":"PATH","surface":"ROCK","surface_group":"GRAVEL","surface_source":"INFERRED","flags":0,"lanes":0,"sac_scale":"ALPINE_HIKING","trail_visibility":4,"layer":0,"width_cm":0,"access":67,"name":"Trail T4","name_en":"Trail T4","name_ne":"","ref":"","tile":"10/517/162"},"geometry":{"type":"LineString","coordinates":[[85.3171186,27.7187062],[85.3173491,27.718397],[85.3176237,27.7181467],[85.3179295,27.71796],[85.3182535,27.7178395],[85.3185824,27.7177857],[85.318903,27.7177977]]}},
{"type":"Feature","properties":{"osm_way_id":1000038,"road_class":"PATH","surface":"ROCK","surface_group":"GRAVEL","surface_source":"INFERRED","flags":128,"lanes":0,"sac_scale":"DEMANDING_ALPINE_HIKING","trail_visibility":5,"layer":0,"width_cm":0,"access":67,"name":"Trail T5","name_en":"Trail T5","name_ne":"","ref":"","tile":"10/517/162"},"geometry":{"type":"LineString","coordinates":[[85.3173838,27.7168859],[85.3177963,27.7168314],[85.318189,27.7168456],[85.3185495,27.7169229],[85.318867,27.7170565],[85.3191319,27.7172381],[85.3193364,27.7174581]]}},
{"type":"Feature","properties":{"osm_way_id":1000039,"road_class":"PATH","surface":"ROCK","surface_group":"GRAVEL","surface_source":"INFERRED","flags":0,"lanes":0,"sac_scale":"DIFFICULT_ALPINE_HIKING","trail_visibility":6,"layer":0,"width_cm":0,"access":67,"name":"Trail T6","name_en":"Trail T6","name_ne":"","ref":"","tile":"10/517/162"},"geometry":{"type":"LineString","coordinates":[[85.3190813,27.7158433],[85.3194028,27.7160796],[85.3196537,27.7163488],[85.3198304,27.716639],[85.3199313,27.7169383],[85.319957,27.717235],[85.3199101,27.7175175]]}},
{"type":"Feature","properties":{"osm_way_id":1000040,"road_class":"PATH","surface":"DIRT","surface_group":"DIRT","surface_source":"INFERRED","flags":0,"lanes":0,"sac_scale":"UNKNOWN","trail_visibility":0,"layer":0,"width_cm":0,"access":67,"name":"Trail (no sac_scale)","name_en":"Trail (no sac_scale)","name_ne":"","ref":"","tile":"10/517/162"},"geometry":{"type":"LineString","coordinates":[[85.3210878,27.7162682],[85.3211056,27.716639],[85.3210487,27.7169851],[85.3209246,27.7172961],[85.3207421,27.7175631],[85.3205116,27.7177786],[85.3202443,27.7179366]]}},
{"type":"Feature","properties":{"osm_way_id":1000041,"road_class":"STEPS","surface":"ROCK","surface_group":"GRAVEL","surface_source":"TAGGED","flags":0,"lanes":0,"sac_scale":"MOUNTAIN_HIKING","trail_visibility":0,"layer":0,"width_cm":0,"access":1,"name":"Dhunga Sinki","name_en":"Dhunga Sinki","name_ne":"","ref":"","tile":"10/517/162"},"geometry":{"type":"LineString","coordinates":[[85.3191252,27.7166209],[85.3193357,27.7172508],[85.3195461,27.7178806]]}},
{"type":"Feature","properties":{"osm_way_id":1000042,"road_class":"CYCLEWAY","surface":"ASPHALT","surface_group":"PAVED","surface_source":"TAGGED","flags":0,"lanes":0,"sac_scale":"UNKNOWN","trail_visibility":0,"layer":0,"width_cm":0,"access":2,"ref":"","tile":"10/517/162"},"geometry":{"type":"LineString","coordinates":[[85.3134298,27.7153211],[85.3154591,27.7153921],[85.3174863,27.7152826]]}},
{"type":"Feature","properties":{"osm_way_id":1000043,"road_class":"BRIDLEWAY","surface":"GRASS","surface_group":"DIRT","surface_source":"DEFAULT","flags":0,"lanes":0,"sac_scale":"HIKING","trail_visibility":0,"layer":0,"width_cm":0,"access":67,"ref":"","tile":"10/517/162"},"geometry":{"type":"LineString","coordinates":[[85.3220968,27.7191199],[85.3230182,27.7198332]]}},
{"type":"Feature","properties":{"osm_way_id":1000044,"road_class":"FOOTWAY","surface":"METAL","surface_group":"PAVED","surface_source":"TAGGED","flags":2,"lanes":0,"sac_scale":"UNKNOWN","trail_visibility":0,"layer":0,"width_cm":0,"access":1,"name":"Jholunge Pul (sample)","name_en":"Jholunge Pul (sample)","name_ne":"झोलुङ्गे पुल","ref":"","tile":"10/517/162"},"geometry":{"type":"LineString","coordinates":[[85.3148129,27.7164814],[85.3151172,27.7164785]]}}
]}
