{"type":"FeatureCollection","name":"trails","features":[
{"type":"Feature","properties":{"osm_way_id":1000031,"road_class":"PEDESTRIAN","surface":"BRICK","surface_group":"PAVED","surface_source":"TAGGED","flags":0,"lanes":0,"sac_scale":"UNKNOWN","trail_visibility":0,"layer":0,"width_cm":0,"access":1,"name":"Pasal Gali","name_en":"Pasal Gali","name_ne":"पसल गल्ली","ref":"","tile":"10/516/162"},"geometry":{"type":"LineString","coordinates":[[85.3053827,27.7185356],[85.3068953,27.7184926],[85.3084151,27.718526]]}},
{"type":"Feature","properties":{"osm_way_id":1000032,"road_class":"FOOTWAY","surface":"BRICK","surface_group":"PAVED","surface_source":"INFERRED","flags":0,"lanes":0,"sac_scale":"UNKNOWN","trail_visibility":0,"layer":0,"width_cm":0,"access":1,"ref":"","tile":"10/516/162"},"geometry":{"type":"LineString","coordinates":[[85.3068626,27.7174594],[85.3070719,27.717999],[85.3068953,27.7184971]]}},
{"type":"Feature","properties":{"osm_way_id":1000033,"road_class":"FOOTWAY","surface":"CONCRETE","surface_group":"PAVED","surface_source":"INFERRED","flags":0,"lanes":0,"sac_scale":"UNKNOWN","trail_visibility":0,"layer":0,"width_cm":0,"access":1,"ref":"","tile":"10/516/162"},"geometry":{"type":"LineString","coordinates":[[85.3113939,27.7147086],[85.3120057,27.7149736]]}},
{"type":"Feature","properties":{"osm_way_id":1000034,"road_class":"PATH","surface":"DIRT","surface_group":"DIRT","surface_source":"DEFAULT","flags":0,"lanes":0,"sac_scale":"HIKING","trail_visibility":1,"layer":0,"width_cm":0,"access":67,"name":"Trail T1","name_en":"Trail T1","name_ne":"","ref":"","tile":"10/517/162"},"geometry":{"type":"LineString","coordinates":[[85.3219401,27.7188101],[85.3215493,27.7189397],[85.3211619,27.7189985],[85.3207912,27.7189896],[85.3204494,27.7189177],[85.3201478,27.7187891],[85.3198964,27.7186117]]}},
{"type":"Feature","properties":{"osm_way_id":1000035,"road_class":"PATH","surface":"GRASS","surface_group":"DIRT","surface_source":"INFERRED","flags":128,"lanes":0,"sac_scale":"MOUNTAIN_HIKING","trail_visibility":2,"layer":0,"width_cm":0,"access":67,"name":"Trail T2","name_en":"Trail T2","name_ne":"","ref":"","tile":"10/517/162"},"geometry":{"type":"LineString","coordinates":[[85.3205233,27.7201441],[85.3201535,27.7199723],[85.3198452,27.7197555],[85.3196046,27.7195044],[85.3194359,27.7192302],[85.3193415,27.7189447],[85.3193214,27.7186598]]}},
{"type":"Feature","properties":{"osm_way_id":1000036,"road_class":"PATH","surface":"ROCK","surface_group":"GRAVEL","surface_source":"INFERRED","flags":128,"lanes":0,"sac_scale":"DEMANDING_MOUNTAIN_HIKING","trail_visibility":3,"layer":0,"width_cm":0,"access":67,"name":"Trail T3","name_en":"Trail T3","name_ne":"","ref":"","tile":"10/517/162"},"geometry":{"type":"LineString","coordinates":[[85.3184612,27.7200997],[85.3183572,27.7197402],[85.318332,27.7193912],[85.3183807,27.719064],[85.3184968,27.7187691],[85.318672,27.7185156],[85.3188965,27.7183116]]}},
{"type":"Feature","properties":{"osm_way_id":1000037,"road_class":"PATH","surface":"ROCK","surface_group":"GRAVEL","surface_source":"INFERRED","flags":0,"lanes":0,"sac_scale":"ALPINE_HIKING","trail_visibility":4,"layer":0,"width_cm":0,"access":67,"name":"Trail T4","name_en":"Trail T4","name_ne":"","ref":"","tile":"10/517/162"},"geometry":{"type":"LineString","coordinates":[[85.3171186,27.7187062],[85.3173491,27.718397],[85.3176237,27.7181467],[85.3179295,27.71796],[85.3182535,27.7178395],[85.3185824,27.7177857],[85.318903,27.7177977]]}},
{"type":"Feature","properties":{"osm_way_id":1000038,"road_class":"PATH","surface":"ROCK","surface_group":"GRAVEL","surface_source":"INFERRED","flags":128,"lanes":0,"sac_scale":"DEMANDING_ALPINE_HIKING","trail_visibility":5,"layer":0,"width_cm":0,"access":67,"name":"Trail T5","name_en":"Trail T5","name_ne":"","ref":"","tile":"10/517/162"},"geometry":{"type":"LineString","coordinates":[[85.3173838,27.7168859],[85.3177963,27.7168314],[85.318189,27.7168456],[85.3185495,27.7169229],[85.318867,27.7170565],[85.3191319,27.7172381],[85.3193364,27.7174581]]}},
{"type":"Feature","properties":{"osm_way_id":1000039,"road_class":"PATH","surface":"ROCK","surface_group":"GRAVEL","surface_source":"INFERRED","flags":0,"lanes":0,"sac_scale":"DIFFICULT_ALPINE_HIKING","trail_visibility":6,"layer":0,"width_cm":0,"access":67,"name":"Trail T6","name_en":"Trail T6","name_ne":"","ref":"","tile":"10/517/162"},"geometry":{"type":"LineString","coordinates":[[85.3190813,27.7158433],[85.3194028,27.7160796],[85.3196537,27.7163488],[85.3198304,27.716639],[85.3199313,27.7169383],[85.319957,27.717235],[85.3199101,27.7175175]]}},
{"type":"Feature","properties":{"osm_way_id":1000040,"road_class":"PATH","surface":"DIRT","surface_group":"DIRT","surface_source":"INFERRED","flags":0,"lanes":0,"sac_scale":"UNKNOWN","trail_visibility":0,"layer":0,"width_cm":0,"access":67,"name":"Trail (no sac_scale)","name_en":"Trail (no sac_scale)","name_ne":"","ref":"","tile":"10/517/162"},"geometry":{"type":"LineString","coordinates":[[85.3210878,27.7162682],[85.3211056,27.716639],[85.3210487,27.7169851],[85.3209246,27.7172961],[85.3207421,27.7175631],[85.3205116,27.7177786],[85.3202443,27.7179366]]}},
{"type":"Feature","properties":{"osm_way_id":1000041,"road_class":"STEPS","surface":"ROCK","surface_group":"GRAVEL","surface_source":"TAGGED","flags":0,"lanes":0,"sac_scale":"MOUNTAIN_HIKING","trail_visibility":0,"layer":0,"width_cm":0,"access":1,"name":"Dhunga Sinki","name_en":"Dhunga Sinki","name_ne":"","ref":"","tile":"10/517/162"},"geometry":{"type":"LineString","coordinates":[[85.3191252,27.7166209],[85.3193357,27.7172508],[85.3195461,27.7178806]]}},
{"type":"Feature","properties":{"osm_way_id":1000042,"road_class":"CYCLEWAY","surface":"ASPHALT","surface_group":"PAVED","surface_source":"TAGGED","flags":0,"lanes":0,"sac_scale":"UNKNOWN","trail_visibility":0,"layer":0,"width_cm":0,"access":2,"ref":"","tile":"10/517/162"},"geometry":{"type":"LineString","coordinates":[[85.3134298,27.7153211],[85.3154591,27.7153921],[85.3174863,27.7152826]]}},
{"type":"Feature","properties":{"osm_way_id":1000043,"road_class":"BRIDLEWAY","surface":"GRASS","surface_group":"DIRT","surface_source":"DEFAULT","flags":0,"lanes":0,"sac_scale":"HIKING","trail_visibility":0,"layer":0,"width_cm":0,"access":67,"ref":"","tile":"10/517/162"},"geometry":{"type":"LineString","coordinates":[[85.3220968,27.7191199],[85.3230182,27.7198332]]}},
{"type":"Feature","properties":{"osm_way_id":1000044,"road_class":"FOOTWAY","surface":"METAL","surface_group":"PAVED","surface_source":"TAGGED","flags":2,"lanes":0,"sac_scale":"UNKNOWN","trail_visibility":0,"layer":0,"width_cm":0,"access":1,"name":"Jholunge Pul (sample)","name_en":"Jholunge Pul (sample)","name_ne":"झोलुङ्गे पुल","ref":"","tile":"10/517/162"},"geometry":{"type":"LineString","coordinates":[[85.3148129,27.7164814],[85.3151172,27.7164785]]}}
]}
